zip,Zipcode name,City,State,County Name
16820,"AARONSBURG, PA",AARONSBURG,PA,CENTRE
17301,"ABBOTTSTOWN, PA",ABBOTTSTOWN,PA,ADAMS
19001,"ABINGTON, PA",ABINGTON,PA,MONTGOMERY
18010,"ACKERMANVILLE, PA",ACKERMANVILLE,PA,NORTHAMPTON
15610,"ACME, PA",ACME,PA,WESTMORELAND
15520,"ACOSTA, PA",ACOSTA,PA,SOMERSET
15410,"ADAH, PA",ADAH,PA,FAYETTE
15611,"ADAMSBURG, PA",ADAMSBURG,PA,WESTMORELAND
19501,"ADAMSTOWN, PA",ADAMSTOWN,PA,LANCASTER
16110,"ADAMSVILLE, PA",ADAMSVILLE,PA,CRAWFORD
15411,"ADDISON, PA",ADDISON,PA,SOMERSET
16210,"ADRIAN, PA",ADRIAN,PA,ARMSTRONG
17302,"AIRVILLE, PA",AIRVILLE,PA,YORK
17501,"AKRON, PA",AKRON,PA,LANCASTER
16401,"ALBION, PA",ALBION,PA,ERIE
18210,"ALBRIGHTSVILLE, PA",ALBRIGHTSVILLE,PA,CARBON
18011,"ALBURTIS, PA",ALBURTIS,PA,LEHIGH
15310,"ALEPPO, PA",ALEPPO,PA,GREENE
16611,"ALEXANDRIA, PA",ALEXANDRIA,PA,HUNTINGDON
15001,"ALIQUIPPA, PA",ALIQUIPPA,PA,BEAVER
15412,"ALLENPORT, PA",ALLENPORT,PA,WASHINGTON
17002,"ALLENSVILLE, PA",ALLENSVILLE,PA,MIFFLIN
18101,"ALLENTOWN, PA",ALLENTOWN,PA,LEHIGH
18102,"ALLENTOWN, PA",ALLENTOWN,PA,LEHIGH
18103,"ALLENTOWN, PA",ALLENTOWN,PA,LEHIGH
18104,"ALLENTOWN, PA",ALLENTOWN,PA,LEHIGH
18105,"ALLENTOWN, PA",ALLENTOWN,PA,LEHIGH
18106,"ALLENTOWN, PA",ALLENTOWN,PA,LEHIGH
18109,"ALLENTOWN, PA",ALLENTOWN,PA,LEHIGH
18195,"ALLENTOWN, PA",ALLENTOWN,PA,LEHIGH
17810,"ALLENWOOD, PA",ALLENWOOD,PA,UNION
15413,"ALLISON, PA",ALLISON,PA,FAYETTE
15101,"ALLISON PARK, PA",ALLISON PARK,PA,ALLEGHENY
16821,"ALLPORT, PA",ALLPORT,PA,CLEARFIELD
16601,"ALTOONA, PA",ALTOONA,PA,BLAIR
16602,"ALTOONA, PA",ALTOONA,PA,BLAIR
16603,"ALTOONA, PA",ALTOONA,PA,BLAIR
15521,"ALUM BANK, PA",ALUM BANK,PA,BEDFORD
15710,"ALVERDA, PA",ALVERDA,PA,INDIANA
15612,"ALVERTON, PA",ALVERTON,PA,WESTMORELAND
17210,"AMBERSON, PA",AMBERSON,PA,FRANKLIN
19002,"AMBLER, PA",AMBLER,PA,MONTGOMERY
15003,"AMBRIDGE, PA",AMBRIDGE,PA,BEAVER
15311,"AMITY, PA",AMITY,PA,WASHINGTON
18320,"ANALOMINK, PA",ANALOMINK,PA,MONROE
18211,"ANDREAS, PA",ANDREAS,PA,SCHUYLKILL
15711,"ANITA, PA",ANITA,PA,JEFFERSON
17003,"ANNVILLE, PA",ANNVILLE,PA,LEBANON
17720,"ANTES FORT, PA",ANTES FORT,PA,LYCOMING
15613,"APOLLO, PA",APOLLO,PA,WESTMORELAND
15712,"ARCADIA, PA",ARCADIA,PA,INDIANA
18403,"ARCHBALD, PA",ARCHBALD,PA,LACKAWANNA
15615,"ARDARA, PA",ARDARA,PA,WESTMORELAND
19003,"ARDMORE, PA",ARDMORE,PA,MONTGOMERY
17303,"ARENDTSVILLE, PA",ARENDTSVILLE,PA,ADAMS
17920,"ARISTES, PA",ARISTES,PA,COLUMBIA
15920,"ARMAGH, PA",ARMAGH,PA,INDIANA
15616,"ARMBRUST, PA",ARMBRUST,PA,WESTMORELAND
16911,"ARNOT, PA",ARNOT,PA,TIOGA
15617,"ARONA, PA",ARONA,PA,WESTMORELAND
17211,"ARTEMAS, PA",ARTEMAS,PA,BEDFORD
18212,"ASHFIELD, PA",ASHFIELD,PA,CARBON
17921,"ASHLAND, PA",ASHLAND,PA,SCHUYLKILL
16613,"ASHVILLE, PA",ASHVILLE,PA,CAMBRIA
17304,"ASPERS, PA",ASPERS,PA,ADAMS
19014,"ASTON, PA",ASTON,PA,DELAWARE
19310,"ATGLEN, PA",ATGLEN,PA,CHESTER
18810,"ATHENS, PA",ATHENS,PA,BRADFORD
16111,"ATLANTIC, PA",ATLANTIC,PA,CRAWFORD
15004,"ATLASBURG, PA",ATLASBURG,PA,WASHINGTON
17922,"AUBURN, PA",AUBURN,PA,SCHUYLKILL
19407,"AUDUBON, PA",AUDUBON,PA,MONTGOMERY
15713,"AULTMAN, PA",AULTMAN,PA,INDIANA
16720,"AUSTIN, PA",AUSTIN,PA,POTTER
15312,"AVELLA, PA",AVELLA,PA,WASHINGTON
17721,"AVIS, PA",AVIS,PA,CLINTON
19311,"AVONDALE, PA",AVONDALE,PA,CHESTER
15618,"AVONMORE, PA",AVONMORE,PA,WESTMORELAND
15005,"BADEN, PA",BADEN,PA,BEAVER
17502,"BAINBRIDGE, PA",BAINBRIDGE,PA,LANCASTER
15006,"BAIRDFORD, PA",BAIRDFORD,PA,ALLEGHENY
15007,"BAKERSTOWN, PA",BAKERSTOWN,PA,ALLEGHENY
19004,"BALA CYNWYD, PA",BALA CYNWYD,PA,MONTGOMERY
19503,"BALLY, PA",BALLY,PA,BERKS
18013,"BANGOR, PA",BANGOR,PA,NORTHAMPTON
18214,"BARNESVILLE, PA",BARNESVILLE,PA,SCHUYLKILL
17503,"BART, PA",BART,PA,LANCASTER
19504,"BARTO, PA",BARTO,PA,BERKS
18321,"BARTONSVILLE, PA",BARTONSVILLE,PA,MONROE
18014,"BATH, PA",BATH,PA,NORTHAMPTON
18601,"BEACH HAVEN, PA",BEACH HAVEN,PA,LUZERNE
18405,"BEACH LAKE, PA",BEACH LAKE,PA,WAYNE
15313,"BEALLSVILLE, PA",BEALLSVILLE,PA,WASHINGTON
18602,"BEAR CREEK, PA",BEAR CREEK,PA,LUZERNE
16402,"BEAR LAKE, PA",BEAR LAKE,PA,WARREN
15009,"BEAVER, PA",BEAVER,PA,BEAVER
15010,"BEAVER FALLS, PA",BEAVER FALLS,PA,BEAVER
18216,"BEAVER MEADOWS, PA",BEAVER MEADOWS,PA,CARBON
17812,"BEAVER SPRINGS, PA",BEAVER SPRINGS,PA,SNYDER
15921,"BEAVERDALE, PA",BEAVERDALE,PA,CAMBRIA
17813,"BEAVERTOWN, PA",BEAVERTOWN,PA,SNYDER
16616,"BECCARIA, PA",BECCARIA,PA,CLEARFIELD
19505,"BECHTELSVILLE, PA",BECHTELSVILLE,PA,BERKS
15522,"BEDFORD, PA",BEDFORD,PA,BEDFORD
18910,"BEDMINSTER, PA",BEDMINSTER,PA,BUCKS
16822,"BEECH CREEK, PA",BEECH CREEK,PA,CLINTON
15012,"BELLE VERNON, PA",BELLE VERNON,PA,FAYETTE
16823,"BELLEFONTE, PA",BELLEFONTE,PA,CENTRE
17004,"BELLEVILLE, PA",BELLEVILLE,PA,MIFFLIN
16617,"BELLWOOD, PA",BELLWOOD,PA,BLAIR
15922,"BELSANO, PA",BELSANO,PA,CAMBRIA
17306,"BENDERSVILLE, PA",BENDERSVILLE,PA,ADAMS
15821,"BENEZETT, PA",BENEZETT,PA,ELK
19020,"BENSALEM, PA",BENSALEM,PA,BUCKS
15314,"BENTLEYVILLE, PA",BENTLEYVILLE,PA,WASHINGTON
17814,"BENTON, PA",BENTON,PA,COLUMBIA
15530,"BERLIN, PA",BERLIN,PA,SOMERSET
19506,"BERNVILLE, PA",BERNVILLE,PA,BERKS
17005,"BERRYSBURG, PA",BERRYSBURG,PA,DAUPHIN
18603,"BERWICK, PA",BERWICK,PA,COLUMBIA
19312,"BERWYN, PA",BERWYN,PA,CHESTER
16112,"BESSEMER, PA",BESSEMER,PA,LAWRENCE
19507,"BETHEL, PA",BETHEL,PA,BERKS
15102,"BETHEL PARK, PA",BETHEL PARK,PA,ALLEGHENY
18025,"BETHLEHEM, PA",BETHLEHEM,PA,LEHIGH
18015,"BETHLEHEM, PA",BETHLEHEM,PA,NORTHAMPTON
18016,"BETHLEHEM, PA",BETHLEHEM,PA,NORTHAMPTON
18017,"BETHLEHEM, PA",BETHLEHEM,PA,NORTHAMPTON
18018,"BETHLEHEM, PA",BETHLEHEM,PA,NORTHAMPTON
18020,"BETHLEHEM, PA",BETHLEHEM,PA,NORTHAMPTON
16211,"BEYER, PA",BEYER,PA,INDIANA
17212,"BIG COVE TANNERY, PA",BIG COVE TANNERY,PA,FULTON
15715,"BIG RUN, PA",BIG RUN,PA,JEFFERSON
16825,"BIGLER, PA",BIGLER,PA,CLEARFIELD
17307,"BIGLERVILLE, PA",BIGLERVILLE,PA,ADAMS
19421,"BIRCHRUNVILLE, PA",BIRCHRUNVILLE,PA,CHESTER
17505,"BIRD IN HAND, PA",BIRD IN HAND,PA,LANCASTER
19508,"BIRDSBORO, PA",BIRDSBORO,PA,BERKS
15716,"BLACK LICK, PA",BLACK LICK,PA,INDIANA
17006,"BLAIN, PA",BLAIN,PA,PERRY
17213,"BLAIRS MILLS, PA",BLAIRS MILLS,PA,HUNTINGDON
15717,"BLAIRSVILLE, PA",BLAIRSVILLE,PA,INDIANA
18610,"BLAKESLEE, PA",BLAKESLEE,PA,MONROE
16826,"BLANCHARD, PA",BLANCHARD,PA,CENTRE
16619,"BLANDBURG, PA",BLANDBURG,PA,CAMBRIA
19510,"BLANDON, PA",BLANDON,PA,BERKS
18911,"BLOOMING GLEN, PA",BLOOMING GLEN,PA,BUCKS
17815,"BLOOMSBURG, PA",BLOOMSBURG,PA,COLUMBIA
16912,"BLOSSBURG, PA",BLOSSBURG,PA,TIOGA
17506,"BLUE BALL, PA",BLUE BALL,PA,LANCASTER
19422,"BLUE BELL, PA",BLUE BELL,PA,MONTGOMERY
17214,"BLUE RIDGE SUMMIT, PA",BLUE RIDGE SUMMIT,PA,FRANKLIN
16827,"BOALSBURG, PA",BOALSBURG,PA,CENTRE
15315,"BOBTOWN, PA",BOBTOWN,PA,GREENE
17007,"BOILING SPRINGS, PA",BOILING SPRINGS,PA,CUMBERLAND
15923,"BOLIVAR, PA",BOLIVAR,PA,WESTMORELAND
15531,"BOSWELL, PA",BOSWELL,PA,SOMERSET
15619,"BOVARD, PA",BOVARD,PA,WESTMORELAND
19511,"BOWERS, PA",BOWERS,PA,BERKS
18030,"BOWMANSTOWN, PA",BOWMANSTOWN,PA,CARBON
17507,"BOWMANSVILLE, PA",BOWMANSVILLE,PA,LANCASTER
16016,"BOYERS, PA",BOYERS,PA,BUTLER
16017,"BOYERS, PA",BOYERS,PA,BUTLER
16018,"BOYERS, PA",BOYERS,PA,BUTLER
16020,"BOYERS, PA",BOYERS,PA,BUTLER
19512,"BOYERTOWN, PA",BOYERTOWN,PA,BERKS
15532,"BOYNTON, PA",BOYNTON,PA,SOMERSET
15014,"BRACKENRIDGE, PA",BRACKENRIDGE,PA,ALLEGHENY
18812,"BRACKNEY, PA",BRACKNEY,PA,SUSQUEHANNA
15104,"BRADDOCK, PA",BRADDOCK,PA,ALLEGHENY
15620,"BRADENVILLE, PA",BRADENVILLE,PA,WESTMORELAND
16701,"BRADFORD, PA",BRADFORD,PA,MCKEAN
15015,"BRADFORDWOODS, PA",BRADFORDWOODS,PA,ALLEGHENY
17923,"BRANCHDALE, PA",BRANCHDALE,PA,SCHUYLKILL
16021,"BRANCHTON, PA",BRANCHTON,PA,BUTLER
19316,"BRANDAMORE, PA",BRANDAMORE,PA,CHESTER
15822,"BRANDY CAMP, PA",BRANDY CAMP,PA,ELK
15316,"BRAVE, PA",BRAVE,PA,GREENE
15533,"BREEZEWOOD, PA",BREEZEWOOD,PA,BEDFORD
18031,"BREINIGSVILLE, PA",BREINIGSVILLE,PA,LEHIGH
19405,"BRIDGEPORT, PA",BRIDGEPORT,PA,MONTGOMERY
15017,"BRIDGEVILLE, PA",BRIDGEVILLE,PA,ALLEGHENY
15415,"BRIER HILL, PA",BRIER HILL,PA,FAYETTE
16620,"BRISBIN, PA",BRISBIN,PA,CLEARFIELD
19007,"BRISTOL, PA",BRISTOL,PA,BUCKS
16621,"BROAD TOP, PA",BROAD TOP,PA,HUNTINGDON
15823,"BROCKPORT, PA",BROCKPORT,PA,ELK
17925,"BROCKTON, PA",BROCKTON,PA,SCHUYLKILL
15824,"BROCKWAY, PA",BROCKWAY,PA,JEFFERSON
18322,"BRODHEADSVILLE, PA",BRODHEADSVILLE,PA,MONROE
17309,"BROGUE, PA",BROGUE,PA,YORK
19015,"BROOKHAVEN, PA",BROOKHAVEN,PA,DELAWARE
18813,"BROOKLYN, PA",BROOKLYN,PA,SUSQUEHANNA
15825,"BROOKVILLE, PA",BROOKVILLE,PA,JEFFERSON
19008,"BROOMALL, PA",BROOMALL,PA,DELAWARE
15416,"BROWNFIELD, PA",BROWNFIELD,PA,FAYETTE
17508,"BROWNSTOWN, PA",BROWNSTOWN,PA,LANCASTER
15417,"BROWNSVILLE, PA",BROWNSVILLE,PA,FAYETTE
16022,"BRUIN, PA",BRUIN,PA,BUTLER
15720,"BRUSH VALLEY, PA",BRUSH VALLEY,PA,INDIANA
19009,"BRYN ATHYN, PA",BRYN ATHYN,PA,MONTGOMERY
19010,"BRYN MAWR, PA",BRYN MAWR,PA,DELAWARE
18323,"BUCK HILL FALLS, PA",BUCK HILL FALLS,PA,MONROE
18912,"BUCKINGHAM, PA",BUCKINGHAM,PA,BUCKS
15018,"BUENA VISTA, PA",BUENA VISTA,PA,ALLEGHENY
15534,"BUFFALO MILLS, PA",BUFFALO MILLS,PA,BEDFORD
15019,"BULGER, PA",BULGER,PA,WASHINGTON
15020,"BUNOLA, PA",BUNOLA,PA,ALLEGHENY
15021,"BURGETTSTOWN, PA",BURGETTSTOWN,PA,WASHINGTON
18814,"BURLINGTON, PA",BURLINGTON,PA,BRADFORD
17009,"BURNHAM, PA",BURNHAM,PA,MIFFLIN
15721,"BURNSIDE, PA",BURNSIDE,PA,CLEARFIELD
17215,"BURNT CABINS, PA",BURNT CABINS,PA,FULTON
18324,"BUSHKILL, PA",BUSHKILL,PA,PIKE
16001,"BUTLER, PA",BUTLER,PA,BUTLER
16002,"BUTLER, PA",BUTLER,PA,BUTLER
16003,"BUTLER, PA",BUTLER,PA,BUTLER
15827,"BYRNEDALE, PA",BYRNEDALE,PA,ELK
16023,"CABOT, PA",CABOT,PA,BUTLER
16212,"CADOGAN, PA",CADOGAN,PA,ARMSTRONG
15924,"CAIRNBROOK, PA",CAIRNBROOK,PA,SOMERSET
15419,"CALIFORNIA, PA",CALIFORNIA,PA,WASHINGTON
16213,"CALLENSBURG, PA",CALLENSBURG,PA,CLARION
16024,"CALLERY, PA",CALLERY,PA,BUTLER
15621,"CALUMET, PA",CALUMET,PA,WESTMORELAND
16622,"CALVIN, PA",CALVIN,PA,HUNTINGDON
18611,"CAMBRA, PA",CAMBRA,PA,LUZERNE
16403,"CAMBRIDGE SPRINGS, PA",CAMBRIDGE SPRINGS,PA,CRAWFORD
17001,"CAMP HILL, PA",CAMP HILL,PA,CUMBERLAND
17011,"CAMP HILL, PA",CAMP HILL,PA,CUMBERLAND
17012,"CAMP HILL, PA",CAMP HILL,PA,CUMBERLAND
17089,"CAMP HILL, PA",CAMP HILL,PA,CUMBERLAND
17010,"CAMPBELLTOWN, PA",CAMPBELLTOWN,PA,LEBANON
18815,"CAMPTOWN, PA",CAMPTOWN,PA,BRADFORD
18325,"CANADENSIS, PA",CANADENSIS,PA,MONROE
15317,"CANONSBURG, PA",CANONSBURG,PA,WASHINGTON
17724,"CANTON, PA",CANTON,PA,BRADFORD
18407,"CARBONDALE, PA",CARBONDALE,PA,LACKAWANNA
15420,"CARDALE, PA",CARDALE,PA,FAYETTE
17013,"CARLISLE, PA",CARLISLE,PA,CUMBERLAND
17015,"CARLISLE, PA",CARLISLE,PA,CUMBERLAND
16311,"CARLTON, PA",CARLTON,PA,MERCER
15320,"CARMICHAELS, PA",CARMICHAELS,PA,GREENE
15106,"CARNEGIE, PA",CARNEGIE,PA,ALLEGHENY
15722,"CARROLLTOWN, PA",CARROLLTOWN,PA,CAMBRIA
18913,"CARVERSVILLE, PA",CARVERSVILLE,PA,BUCKS
17310,"CASHTOWN, PA",CASHTOWN,PA,ADAMS
16623,"CASSVILLE, PA",CASSVILLE,PA,HUNTINGDON
17726,"CASTANEA, PA",CASTANEA,PA,CLINTON
18032,"CATASAUQUA, PA",CATASAUQUA,PA,LEHIGH
17820,"CATAWISSA, PA",CATAWISSA,PA,COLUMBIA
15321,"CECIL, PA",CECIL,PA,WASHINGTON
17727,"CEDAR RUN, PA",CEDAR RUN,PA,LYCOMING
19423,"CEDARS, PA",CEDARS,PA,MONTGOMERY
18034,"CENTER VALLEY, PA",CENTER VALLEY,PA,LEHIGH
19516,"CENTERPORT, PA",CENTERPORT,PA,BERKS
16404,"CENTERVILLE, PA",CENTERVILLE,PA,CRAWFORD
15926,"CENTRAL CITY, PA",CENTRAL CITY,PA,SOMERSET
16828,"CENTRE HALL, PA",CENTRE HALL,PA,CENTRE
19317,"CHADDS FORD, PA",CHADDS FORD,PA,DELAWARE
18914,"CHALFONT, PA",CHALFONT,PA,BUCKS
15421,"CHALK HILL, PA",CHALK HILL,PA,FAYETTE
17201,"CHAMBERSBURG, PA",CHAMBERSBURG,PA,FRANKLIN
17202,"CHAMBERSBURG, PA",CHAMBERSBURG,PA,FRANKLIN
15723,"CHAMBERSVILLE, PA",CHAMBERSVILLE,PA,INDIANA
15622,"CHAMPION, PA",CHAMPION,PA,WESTMORELAND
16312,"CHANDLERS VALLEY, PA",CHANDLERS VALLEY,PA,WARREN
15022,"CHARLEROI, PA",CHARLEROI,PA,WASHINGTON
19318,"CHATHAM, PA",CHATHAM,PA,CHESTER
19012,"CHELTENHAM, PA",CHELTENHAM,PA,MONTGOMERY
15724,"CHERRY TREE, PA",CHERRY TREE,PA,INDIANA
18035,"CHERRYVILLE, PA",CHERRYVILLE,PA,NORTHAMPTON
16624,"CHEST SPRINGS, PA",CHEST SPRINGS,PA,CAMBRIA
19013,"CHESTER, PA",CHESTER,PA,DELAWARE
19016,"CHESTER, PA",CHESTER,PA,DELAWARE
19017,"CHESTER HEIGHTS, PA",CHESTER HEIGHTS,PA,DELAWARE
19425,"CHESTER SPRINGS, PA",CHESTER SPRINGS,PA,CHESTER
15422,"CHESTNUT RIDGE, PA",CHESTNUT RIDGE,PA,FAYETTE
15024,"CHESWICK, PA",CHESWICK,PA,ALLEGHENY
19319,"CHEYNEY, PA",CHEYNEY,PA,DELAWARE
16025,"CHICORA, PA",CHICORA,PA,BUTLER
18410,"CHINCHILLA, PA",CHINCHILLA,PA,LACKAWANNA
17509,"CHRISTIANA, PA",CHRISTIANA,PA,LANCASTER
15025,"CLAIRTON, PA",CLAIRTON,PA,ALLEGHENY
16829,"CLARENCE, PA",CLARENCE,PA,CENTRE
16313,"CLARENDON, PA",CLARENDON,PA,WARREN
15623,"CLARIDGE, PA",CLARIDGE,PA,WESTMORELAND
15828,"CLARINGTON, PA",CLARINGTON,PA,FOREST
16214,"CLARION, PA",CLARION,PA,CLARION
16113,"CLARK, PA",CLARK,PA,MERCER
16114,"CLARKS MILLS, PA",CLARKS MILLS,PA,MERCER
18411,"CLARKS SUMMIT, PA",CLARKS SUMMIT,PA,LACKAWANNA
15725,"CLARKSBURG, PA",CLARKSBURG,PA,INDIANA
15322,"CLARKSVILLE, PA",CLARKSVILLE,PA,GREENE
16625,"CLAYSBURG, PA",CLAYSBURG,PA,BLAIR
15323,"CLAYSVILLE, PA",CLAYSVILLE,PA,WASHINGTON
16830,"CLEARFIELD, PA",CLEARFIELD,PA,CLEARFIELD
15535,"CLEARVILLE, PA",CLEARVILLE,PA,BEDFORD
18413,"CLIFFORD, PA",CLIFFORD,PA,SUSQUEHANNA
19018,"CLIFTON HEIGHTS, PA",CLIFTON HEIGHTS,PA,DELAWARE
15026,"CLINTON, PA",CLINTON,PA,BEAVER
16372,"CLINTONVILLE, PA",CLINTONVILLE,PA,VENANGO
15728,"CLYMER, PA",CLYMER,PA,INDIANA
15423,"COAL CENTER, PA",COAL CENTER,PA,WASHINGTON
17866,"COAL TOWNSHIP, PA",COAL TOWNSHIP,PA,NORTHUMBERLAND
18218,"COALDALE, PA",COALDALE,PA,SCHUYLKILL
16627,"COALPORT, PA",COALPORT,PA,CLEARFIELD
19320,"COATESVILLE, PA",COATESVILLE,PA,CHESTER
16832,"COBURN, PA",COBURN,PA,CENTRE
16314,"COCHRANTON, PA",COCHRANTON,PA,CRAWFORD
19330,"COCHRANVILLE, PA",COCHRANVILLE,PA,CHESTER
17014,"COCOLAMUS, PA",COCOLAMUS,PA,JUNIATA
17311,"CODORUS, PA",CODORUS,PA,YORK
17728,"COGAN STATION, PA",COGAN STATION,PA,LYCOMING
15324,"COKEBURG, PA",COKEBURG,PA,WASHINGTON
19426,"COLLEGEVILLE, PA",COLLEGEVILLE,PA,MONTGOMERY
18915,"COLMAR, PA",COLMAR,PA,MONTGOMERY
17512,"COLUMBIA, PA",COLUMBIA,PA,LANCASTER
16914,"COLUMBIA CROSS ROADS, PA",COLUMBIA CROSS ROADS,PA,BRADFORD
16405,"COLUMBUS, PA",COLUMBUS,PA,WARREN
15927,"COLVER, PA",COLVER,PA,CAMBRIA
15729,"COMMODORE, PA",COMMODORE,PA,INDIANA
17217,"CONCORD, PA",CONCORD,PA,FRANKLIN
19331,"CONCORDVILLE, PA",CONCORDVILLE,PA,DELAWARE
19339,"CONCORDVILLE, PA",CONCORDVILLE,PA,DELAWARE
17516,"CONESTOGA, PA",CONESTOGA,PA,LANCASTER
15424,"CONFLUENCE, PA",CONFLUENCE,PA,SOMERSET
16316,"CONNEAUT LAKE, PA",CONNEAUT LAKE,PA,CRAWFORD
16406,"CONNEAUTVILLE, PA",CONNEAUTVILLE,PA,CRAWFORD
15425,"CONNELLSVILLE, PA",CONNELLSVILLE,PA,FAYETTE
16027,"CONNOQUENESSING, PA",CONNOQUENESSING,PA,BUTLER
19428,"CONSHOHOCKEN, PA",CONSHOHOCKEN,PA,MONTGOMERY
19429,"CONSHOHOCKEN, PA",CONSHOHOCKEN,PA,MONTGOMERY
15027,"CONWAY, PA",CONWAY,PA,BEAVER
18219,"CONYNGHAM, PA",CONYNGHAM,PA,LUZERNE
16217,"COOKSBURG, PA",COOKSBURG,PA,FOREST
15730,"COOLSPRING, PA",COOLSPRING,PA,JEFFERSON
18036,"COOPERSBURG, PA",COOPERSBURG,PA,LEHIGH
16317,"COOPERSTOWN, PA",COOPERSTOWN,PA,VENANGO
18037,"COPLAY, PA",COPLAY,PA,LEHIGH
15731,"CORAL, PA",CORAL,PA,INDIANA
15108,"CORAOPOLIS, PA",CORAOPOLIS,PA,ALLEGHENY
17016,"CORNWALL, PA",CORNWALL,PA,LEBANON
16407,"CORRY, PA",CORRY,PA,ERIE
15829,"CORSICA, PA",CORSICA,PA,JEFFERSON
16915,"COUDERSPORT, PA",COUDERSPORT,PA,POTTER
15028,"COULTERS, PA",COULTERS,PA,ALLEGHENY
16629,"COUPON, PA",COUPON,PA,CAMBRIA
16917,"COVINGTON, PA",COVINGTON,PA,TIOGA
16218,"COWANSVILLE, PA",COWANSVILLE,PA,ARMSTRONG
15624,"CRABTREE, PA",CRABTREE,PA,WESTMORELAND
17312,"CRALEY, PA",CRALEY,PA,YORK
16319,"CRANBERRY, PA",CRANBERRY,PA,VENANGO
16066,"CRANBERRY TOWNSHIP, PA",CRANBERRY TOWNSHIP,PA,BUTLER
16410,"CRANESVILLE, PA",CRANESVILLE,PA,ERIE
19430,"CREAMERY, PA",CREAMERY,PA,MONTGOMERY
15732,"CREEKSIDE, PA",CREEKSIDE,PA,INDIANA
15030,"CREIGHTON, PA",CREIGHTON,PA,ALLEGHENY
15046,"CRESCENT, PA",CRESCENT,PA,ALLEGHENY
18326,"CRESCO, PA",CRESCO,PA,MONROE
16630,"CRESSON, PA",CRESSON,PA,CAMBRIA
16699,"CRESSON, PA",CRESSON,PA,CAMBRIA
17929,"CRESSONA, PA",CRESSONA,PA,SCHUYLKILL
16724,"CROSBY, PA",CROSBY,PA,MCKEAN
17729,"CROSS FORK, PA",CROSS FORK,PA,POTTER
16220,"CROWN, PA",CROWN,PA,CLARION
19021,"CROYDON, PA",CROYDON,PA,BUCKS
15325,"CRUCIBLE, PA",CRUCIBLE,PA,GREENE
19022,"CRUM LYNNE, PA",CRUM LYNNE,PA,DELAWARE
15536,"CRYSTAL SPRING, PA",CRYSTAL SPRING,PA,FULTON
15031,"CUDDY, PA",CUDDY,PA,ALLEGHENY
17930,"CUMBOLA, PA",CUMBOLA,PA,SCHUYLKILL
16631,"CURRYVILLE, PA",CURRYVILLE,PA,BLAIR
15032,"CURTISVILLE, PA",CURTISVILLE,PA,ALLEGHENY
16833,"CURWENSVILLE, PA",CURWENSVILLE,PA,CLEARFIELD
16725,"CUSTER CITY, PA",CUSTER CITY,PA,MCKEAN
16726,"CYCLONE, PA",CYCLONE,PA,MCKEAN
15831,"DAGUS MINES, PA",DAGUS MINES,PA,ELK
15427,"DAISYTOWN, PA",DAISYTOWN,PA,WASHINGTON
18612,"DALLAS, PA",DALLAS,PA,LUZERNE
17313,"DALLASTOWN, PA",DALLASTOWN,PA,YORK
17017,"DALMATIA, PA",DALMATIA,PA,NORTHUMBERLAND
18414,"DALTON, PA",DALTON,PA,LACKAWANNA
18415,"DAMASCUS, PA",DAMASCUS,PA,WAYNE
18916,"DANBORO, PA",DANBORO,PA,BUCKS
18038,"DANIELSVILLE, PA",DANIELSVILLE,PA,NORTHAMPTON
17821,"DANVILLE, PA",DANVILLE,PA,MONTOUR
17822,"DANVILLE, PA",DANVILLE,PA,MONTOUR
19023,"DARBY, PA",DARBY,PA,DELAWARE
16115,"DARLINGTON, PA",DARLINGTON,PA,BEAVER
15625,"DARRAGH, PA",DARRAGH,PA,WESTMORELAND
17018,"DAUPHIN, PA",DAUPHIN,PA,DAUPHIN
15928,"DAVIDSVILLE, PA",DAVIDSVILLE,PA,SOMERSET
15428,"DAWSON, PA",DAWSON,PA,FAYETTE
16222,"DAYTON, PA",DAYTON,PA,ARMSTRONG
15733,"DE LANCEY, PA",DE LANCEY,PA,JEFFERSON
16633,"DEFIANCE, PA",DEFIANCE,PA,BEDFORD
18220,"DELANO, PA",DELANO,PA,SCHUYLKILL
18327,"DELAWARE WATER GAP, PA",DELAWARE WATER GAP,PA,MONROE
15626,"DELMONT, PA",DELMONT,PA,WESTMORELAND
17314,"DELTA, PA",DELTA,PA,YORK
17517,"DENVER, PA",DENVER,PA,LANCASTER
16727,"DERRICK CITY, PA",DERRICK CITY,PA,MCKEAN
15627,"DERRY, PA",DERRY,PA,WESTMORELAND
19432,"DEVAULT, PA",DEVAULT,PA,CHESTER
19333,"DEVON, PA",DEVON,PA,CHESTER
17730,"DEWART, PA",DEWART,PA,NORTHUMBERLAND
15430,"DICKERSON RUN, PA",DICKERSON RUN,PA,FAYETTE
15327,"DILLINER, PA",DILLINER,PA,GREENE
17019,"DILLSBURG, PA",DILLSBURG,PA,YORK
15929,"DILLTOWN, PA",DILLTOWN,PA,INDIANA
18816,"DIMOCK, PA",DIMOCK,PA,SUSQUEHANNA
18328,"DINGMANS FERRY, PA",DINGMANS FERRY,PA,PIKE
16223,"DISTANT, PA",DISTANT,PA,ARMSTRONG
15734,"DIXONVILLE, PA",DIXONVILLE,PA,INDIANA
15628,"DONEGAL, PA",DONEGAL,PA,WESTMORELAND
15033,"DONORA, PA",DONORA,PA,WASHINGTON
17823,"DORNSIFE, PA",DORNSIFE,PA,NORTHUMBERLAND
19518,"DOUGLASSVILLE, PA",DOUGLASSVILLE,PA,BERKS
17315,"DOVER, PA",DOVER,PA,YORK
19335,"DOWNINGTOWN, PA",DOWNINGTOWN,PA,CHESTER
17219,"DOYLESBURG, PA",DOYLESBURG,PA,FRANKLIN
18901,"DOYLESTOWN, PA",DOYLESTOWN,PA,BUCKS
18902,"DOYLESTOWN, PA",DOYLESTOWN,PA,BUCKS
15034,"DRAVOSBURG, PA",DRAVOSBURG,PA,ALLEGHENY
19025,"DRESHER, PA",DRESHER,PA,MONTGOMERY
19026,"DREXEL HILL, PA",DREXEL HILL,PA,DELAWARE
16834,"DRIFTING, PA",DRIFTING,PA,CLEARFIELD
18221,"DRIFTON, PA",DRIFTON,PA,LUZERNE
15832,"DRIFTWOOD, PA",DRIFTWOOD,PA,CAMERON
17518,"DRUMORE, PA",DRUMORE,PA,LANCASTER
18222,"DRUMS, PA",DRUMS,PA,LUZERNE
17220,"DRY RUN, PA",DRY RUN,PA,FRANKLIN
15801,"DU BOIS, PA",DU BOIS,PA,CLEARFIELD
18917,"DUBLIN, PA",DUBLIN,PA,BUCKS
16634,"DUDLEY, PA",DUDLEY,PA,HUNTINGDON
16729,"DUKE CENTER, PA",DUKE CENTER,PA,MCKEAN
15431,"DUNBAR, PA",DUNBAR,PA,FAYETTE
17020,"DUNCANNON, PA",DUNCANNON,PA,PERRY
16635,"DUNCANSVILLE, PA",DUNCANSVILLE,PA,BLAIR
15432,"DUNLEVY, PA",DUNLEVY,PA,WASHINGTON
15930,"DUNLO, PA",DUNLO,PA,CAMBRIA
15110,"DUQUESNE, PA",DUQUESNE,PA,ALLEGHENY
18039,"DURHAM, PA",DURHAM,PA,BUCKS
18642,"DURYEA, PA",DURYEA,PA,LUZERNE
18614,"DUSHORE, PA",DUSHORE,PA,SULLIVAN
16636,"DYSART, PA",DYSART,PA,CAMBRIA
17731,"EAGLES MERE, PA",EAGLES MERE,PA,SULLIVAN
19408,"EAGLEVILLE, PA",EAGLEVILLE,PA,MONTGOMERY
18918,"EARLINGTON, PA",EARLINGTON,PA,MONTGOMERY
19519,"EARLVILLE, PA",EARLVILLE,PA,BERKS
17316,"EAST BERLIN, PA",EAST BERLIN,PA,ADAMS
16028,"EAST BRADY, PA",EAST BRADY,PA,CLARION
16029,"EAST BUTLER, PA",EAST BUTLER,PA,BUTLER
17519,"EAST EARL, PA",EAST EARL,PA,LANCASTER
16637,"EAST FREEDOM, PA",EAST FREEDOM,PA,BLAIR
18041,"EAST GREENVILLE, PA",EAST GREENVILLE,PA,MONTGOMERY
16321,"EAST HICKORY, PA",EAST HICKORY,PA,FOREST
15035,"EAST MC KEESPORT, PA",EAST MC KEESPORT,PA,ALLEGHENY
15433,"EAST MILLSBORO, PA",EAST MILLSBORO,PA,FAYETTE
17520,"EAST PETERSBURG, PA",EAST PETERSBURG,PA,LANCASTER
15112,"EAST PITTSBURGH, PA",EAST PITTSBURGH,PA,ALLEGHENY
17317,"EAST PROSPECT, PA",EAST PROSPECT,PA,YORK
16730,"EAST SMETHPORT, PA",EAST SMETHPORT,PA,MCKEAN
18817,"EAST SMITHFIELD, PA",EAST SMITHFIELD,PA,BRADFORD
16411,"EAST SPRINGFIELD, PA",EAST SPRINGFIELD,PA,ERIE
18301,"EAST STROUDSBURG, PA",EAST STROUDSBURG,PA,MONROE
18302,"EAST STROUDSBURG, PA",EAST STROUDSBURG,PA,MONROE
18046,"EAST TEXAS, PA",EAST TEXAS,PA,LEHIGH
15629,"EAST VANDERGRIFT, PA",EAST VANDERGRIFT,PA,WESTMORELAND
17021,"EAST WATERFORD, PA",EAST WATERFORD,PA,JUNIATA
18040,"EASTON, PA",EASTON,PA,NORTHAMPTON
18042,"EASTON, PA",EASTON,PA,NORTHAMPTON
18043,"EASTON, PA",EASTON,PA,NORTHAMPTON
18044,"EASTON, PA",EASTON,PA,NORTHAMPTON
18045,"EASTON, PA",EASTON,PA,NORTHAMPTON
16030,"EAU CLAIRE, PA",EAU CLAIRE,PA,BUTLER
15931,"EBENSBURG, PA",EBENSBURG,PA,CAMBRIA
18223,"EBERVALE, PA",EBERVALE,PA,LUZERNE
19028,"EDGEMONT, PA",EDGEMONT,PA,DELAWARE
16412,"EDINBORO, PA",EDINBORO,PA,ERIE
16444,"EDINBORO, PA",EDINBORO,PA,ERIE
16116,"EDINBURG, PA",EDINBURG,PA,LAWRENCE
18330,"EFFORT, PA",EFFORT,PA,MONROE
15330,"EIGHTY FOUR, PA",EIGHTY FOUR,PA,WASHINGTON
15434,"ELCO, PA",ELCO,PA,WASHINGTON
15736,"ELDERTON, PA",ELDERTON,PA,ARMSTRONG
16731,"ELDRED, PA",ELDRED,PA,MCKEAN
15037,"ELIZABETH, PA",ELIZABETH,PA,ALLEGHENY
17022,"ELIZABETHTOWN, PA",ELIZABETHTOWN,PA,LANCASTER
17023,"ELIZABETHVILLE, PA",ELIZABETHVILLE,PA,DAUPHIN
19027,"ELKINS PARK, PA",ELKINS PARK,PA,MONTGOMERY
16920,"ELKLAND, PA",ELKLAND,PA,TIOGA
17024,"ELLIOTTSBURG, PA",ELLIOTTSBURG,PA,PERRY
15331,"ELLSWORTH, PA",ELLSWORTH,PA,WASHINGTON
16117,"ELLWOOD CITY, PA",ELLWOOD CITY,PA,LAWRENCE
17521,"ELM, PA",ELM,PA,LANCASTER
18416,"ELMHURST, PA",ELMHURST,PA,LACKAWANNA
15737,"ELMORA, PA",ELMORA,PA,CAMBRIA
15038,"ELRAMA, PA",ELRAMA,PA,WASHINGTON
15934,"ELTON, PA",ELTON,PA,CAMBRIA
19520,"ELVERSON, PA",ELVERSON,PA,CHESTER
17824,"ELYSBURG, PA",ELYSBURG,PA,NORTHUMBERLAND
15738,"EMEIGH, PA",EMEIGH,PA,CAMBRIA
17318,"EMIGSVILLE, PA",EMIGSVILLE,PA,YORK
16373,"EMLENTON, PA",EMLENTON,PA,VENANGO
18049,"EMMAUS, PA",EMMAUS,PA,LEHIGH
18098,"EMMAUS, PA",EMMAUS,PA,LEHIGH
15834,"EMPORIUM, PA",EMPORIUM,PA,CAMERON
16322,"ENDEAVOR, PA",ENDEAVOR,PA,FOREST
17025,"ENOLA, PA",ENOLA,PA,CUMBERLAND
16120,"ENON VALLEY, PA",ENON VALLEY,PA,LAWRENCE
16638,"ENTRIKEN, PA",ENTRIKEN,PA,HUNTINGDON
17522,"EPHRATA, PA",EPHRATA,PA,LANCASTER
18417,"EQUINUNK, PA",EQUINUNK,PA,WAYNE
16501,"ERIE, PA",ERIE,PA,ERIE
16502,"ERIE, PA",ERIE,PA,ERIE
16503,"ERIE, PA",ERIE,PA,ERIE
16504,"ERIE, PA",ERIE,PA,ERIE
16505,"ERIE, PA",ERIE,PA,ERIE
16506,"ERIE, PA",ERIE,PA,ERIE
16507,"ERIE, PA",ERIE,PA,ERIE
16508,"ERIE, PA",ERIE,PA,ERIE
16509,"ERIE, PA",ERIE,PA,ERIE
16510,"ERIE, PA",ERIE,PA,ERIE
16511,"ERIE, PA",ERIE,PA,ERIE
16512,"ERIE, PA",ERIE,PA,ERIE
16514,"ERIE, PA",ERIE,PA,ERIE
16515,"ERIE, PA",ERIE,PA,ERIE
16530,"ERIE, PA",ERIE,PA,ERIE
16531,"ERIE, PA",ERIE,PA,ERIE
16534,"ERIE, PA",ERIE,PA,ERIE
16541,"ERIE, PA",ERIE,PA,ERIE
16544,"ERIE, PA",ERIE,PA,ERIE
16546,"ERIE, PA",ERIE,PA,ERIE
16550,"ERIE, PA",ERIE,PA,ERIE
16563,"ERIE, PA",ERIE,PA,ERIE
16565,"ERIE, PA",ERIE,PA,ERIE
18920,"ERWINNA, PA",ERWINNA,PA,BUCKS
19029,"ESSINGTON, PA",ESSINGTON,PA,DELAWARE
17319,"ETTERS, PA",ETTERS,PA,YORK
16033,"EVANS CITY, PA",EVANS CITY,PA,BUTLER
15537,"EVERETT, PA",EVERETT,PA,BEDFORD
15631,"EVERSON, PA",EVERSON,PA,FAYETTE
15632,"EXPORT, PA",EXPORT,PA,WESTMORELAND
19341,"EXTON, PA",EXTON,PA,CHESTER
18419,"FACTORYVILLE, PA",FACTORYVILLE,PA,WYOMING
15435,"FAIRBANK, PA",FAIRBANK,PA,FAYETTE
15436,"FAIRCHANCE, PA",FAIRCHANCE,PA,FAYETTE
17320,"FAIRFIELD, PA",FAIRFIELD,PA,ADAMS
15538,"FAIRHOPE, PA",FAIRHOPE,PA,SOMERSET
19030,"FAIRLESS HILLS, PA",FAIRLESS HILLS,PA,BUCKS
16224,"FAIRMOUNT CITY, PA",FAIRMOUNT CITY,PA,CLARION
16415,"FAIRVIEW, PA",FAIRVIEW,PA,ERIE
19409,"FAIRVIEW VILLAGE, PA",FAIRVIEW VILLAGE,PA,MONTGOMERY
16639,"FALLENTIMBER, PA",FALLENTIMBER,PA,CAMBRIA
18615,"FALLS, PA",FALLS,PA,WYOMING
15840,"FALLS CREEK, PA",FALLS CREEK,PA,JEFFERSON
17221,"FANNETTSBURG, PA",FANNETTSBURG,PA,FRANKLIN
15437,"FARMINGTON, PA",FARMINGTON,PA,FAYETTE
16121,"FARRELL, PA",FARRELL,PA,MERCER
17321,"FAWN GROVE, PA",FAWN GROVE,PA,YORK
15438,"FAYETTE CITY, PA",FAYETTE CITY,PA,FAYETTE
17222,"FAYETTEVILLE, PA",FAYETTEVILLE,PA,FRANKLIN
19053,"FEASTERVILLE TREVOSE, PA",FEASTERVILLE TREVOSE,PA,BUCKS
17322,"FELTON, PA",FELTON,PA,YORK
16034,"FENELTON, PA",FENELTON,PA,BUTLER
18921,"FERNDALE, PA",FERNDALE,PA,BUCKS
15332,"FINLEYVILLE, PA",FINLEYVILLE,PA,WASHINGTON
15539,"FISHERTOWN, PA",FISHERTOWN,PA,BEDFORD
18420,"FLEETVILLE, PA",FLEETVILLE,PA,LACKAWANNA
19522,"FLEETWOOD, PA",FLEETWOOD,PA,BERKS
16835,"FLEMING, PA",FLEMING,PA,CENTRE
18050,"FLICKSVILLE, PA",FLICKSVILLE,PA,NORTHAMPTON
16640,"FLINTON, PA",FLINTON,PA,CAMBRIA
19031,"FLOURTOWN, PA",FLOURTOWN,PA,MONTGOMERY
18051,"FOGELSVILLE, PA",FOGELSVILLE,PA,LEHIGH
19032,"FOLCROFT, PA",FOLCROFT,PA,DELAWARE
19033,"FOLSOM, PA",FOLSOM,PA,DELAWARE
16123,"FOMBELL, PA",FOMBELL,PA,BEAVER
15633,"FORBES ROAD, PA",FORBES ROAD,PA,WESTMORELAND
15841,"FORCE, PA",FORCE,PA,ELK
16226,"FORD CITY, PA",FORD CITY,PA,ARMSTRONG
16228,"FORD CLIFF, PA",FORD CLIFF,PA,ARMSTRONG
18421,"FOREST CITY, PA",FOREST CITY,PA,SUSQUEHANNA
18922,"FOREST GROVE, PA",FOREST GROVE,PA,BUCKS
16035,"FORESTVILLE, PA",FORESTVILLE,PA,BUTLER
18616,"FORKSVILLE, PA",FORKSVILLE,PA,SULLIVAN
15540,"FORT HILL, PA",FORT HILL,PA,SOMERSET
17223,"FORT LITTLETON, PA",FORT LITTLETON,PA,FULTON
17224,"FORT LOUDON, PA",FORT LOUDON,PA,FRANKLIN
19034,"FORT WASHINGTON, PA",FORT WASHINGTON,PA,MONTGOMERY
18923,"FOUNTAINVILLE, PA",FOUNTAINVILLE,PA,BUCKS
16036,"FOXBURG, PA",FOXBURG,PA,CLARION
17931,"FRACKVILLE, PA",FRACKVILLE,PA,SCHUYLKILL
18924,"FRANCONIA, PA",FRANCONIA,PA,MONTGOMERY
16323,"FRANKLIN, PA",FRANKLIN,PA,VENANGO
17323,"FRANKLINTOWN, PA",FRANKLINTOWN,PA,YORK
19435,"FREDERICK, PA",FREDERICK,PA,MONTGOMERY
17026,"FREDERICKSBURG, PA",FREDERICKSBURG,PA,LEBANON
15333,"FREDERICKTOWN, PA",FREDERICKTOWN,PA,WASHINGTON
16124,"FREDONIA, PA",FREDONIA,PA,MERCER
17827,"FREEBURG, PA",FREEBURG,PA,SNYDER
15042,"FREEDOM, PA",FREEDOM,PA,BEAVER
18224,"FREELAND, PA",FREELAND,PA,LUZERNE
16229,"FREEPORT, PA",FREEPORT,PA,ARMSTRONG
16836,"FRENCHVILLE, PA",FRENCHVILLE,PA,CLEARFIELD
15541,"FRIEDENS, PA",FRIEDENS,PA,SOMERSET
17933,"FRIEDENSBURG, PA",FRIEDENSBURG,PA,SCHUYLKILL
18818,"FRIENDSVILLE, PA",FRIENDSVILLE,PA,SUSQUEHANNA
16326,"FRYBURG, PA",FRYBURG,PA,CLARION
18925,"FURLONG, PA",FURLONG,PA,BUCKS
16921,"GAINES, PA",GAINES,PA,TIOGA
16922,"GALETON, PA",GALETON,PA,POTTER
16641,"GALLITZIN, PA",GALLITZIN,PA,CAMBRIA
17527,"GAP, PA",GAP,PA,LANCASTER
15334,"GARARDS FORT, PA",GARARDS FORT,PA,GREENE
17324,"GARDNERS, PA",GARDNERS,PA,ADAMS
16416,"GARLAND, PA",GARLAND,PA,WARREN
19060,"GARNET VALLEY, PA",GARNET VALLEY,PA,DELAWARE
15542,"GARRETT, PA",GARRETT,PA,SOMERSET
15336,"GASTONVILLE, PA",GASTONVILLE,PA,WASHINGTON
19523,"GEIGERTOWN, PA",GEIGERTOWN,PA,BERKS
16923,"GENESEE, PA",GENESEE,PA,POTTER
16941,"GENESEE, PA",GENESEE,PA,POTTER
15043,"GEORGETOWN, PA",GEORGETOWN,PA,BEAVER
18053,"GERMANSVILLE, PA",GERMANSVILLE,PA,LEHIGH
17325,"GETTYSBURG, PA",GETTYSBURG,PA,ADAMS
15440,"GIBBON GLADE, PA",GIBBON GLADE,PA,FAYETTE
15044,"GIBSONIA, PA",GIBSONIA,PA,ALLEGHENY
16732,"GIFFORD, PA",GIFFORD,PA,MCKEAN
18331,"GILBERT, PA",GILBERT,PA,MONROE
17934,"GILBERTON, PA",GILBERTON,PA,SCHUYLKILL
19525,"GILBERTSVILLE, PA",GILBERTSVILLE,PA,MONTGOMERY
16925,"GILLETT, PA",GILLETT,PA,BRADFORD
15741,"GIPSY, PA",GIPSY,PA,INDIANA
16417,"GIRARD, PA",GIRARD,PA,ERIE
17935,"GIRARDVILLE, PA",GIRARDVILLE,PA,SCHUYLKILL
19035,"GLADWYNE, PA",GLADWYNE,PA,MONTGOMERY
16644,"GLASGOW, PA",GLASGOW,PA,CAMBRIA
15045,"GLASSPORT, PA",GLASSPORT,PA,ALLEGHENY
15742,"GLEN CAMPBELL, PA",GLEN CAMPBELL,PA,INDIANA
16645,"GLEN HOPE, PA",GLEN HOPE,PA,CLEARFIELD
18617,"GLEN LYON, PA",GLEN LYON,PA,LUZERNE
19342,"GLEN MILLS, PA",GLEN MILLS,PA,DELAWARE
16837,"GLEN RICHEY, PA",GLEN RICHEY,PA,CLEARFIELD
19037,"GLEN RIDDLE LIMA, PA",GLEN RIDDLE LIMA,PA,DELAWARE
17327,"GLEN ROCK, PA",GLEN ROCK,PA,YORK
19343,"GLENMOORE, PA",GLENMOORE,PA,CHESTER
19036,"GLENOLDEN, PA",GLENOLDEN,PA,DELAWARE
15116,"GLENSHAW, PA",GLENSHAW,PA,ALLEGHENY
19038,"GLENSIDE, PA",GLENSIDE,PA,MONTGOMERY
17329,"GLENVILLE, PA",GLENVILLE,PA,YORK
17528,"GOODVILLE, PA",GOODVILLE,PA,LANCASTER
17936,"GORDON, PA",GORDON,PA,SCHUYLKILL
17529,"GORDONVILLE, PA",GORDONVILLE,PA,LANCASTER
18424,"GOULDSBORO, PA",GOULDSBORO,PA,WAYNE
19039,"GRADYVILLE, PA",GRADYVILLE,PA,DELAWARE
16838,"GRAMPIAN, PA",GRAMPIAN,PA,CLEARFIELD
16420,"GRAND VALLEY, PA",GRAND VALLEY,PA,WARREN
17027,"GRANTHAM, PA",GRANTHAM,PA,CUMBERLAND
17028,"GRANTVILLE, PA",GRANTVILLE,PA,DAUPHIN
17029,"GRANVILLE, PA",GRANVILLE,PA,MIFFLIN
16926,"GRANVILLE SUMMIT, PA",GRANVILLE SUMMIT,PA,BRADFORD
15634,"GRAPEVILLE, PA",GRAPEVILLE,PA,WESTMORELAND
16839,"GRASSFLAT, PA",GRASSFLAT,PA,CLEARFIELD
17030,"GRATZ, PA",GRATZ,PA,DAUPHIN
15337,"GRAYSVILLE, PA",GRAYSVILLE,PA,GREENE
18821,"GREAT BEND, PA",GREAT BEND,PA,SUSQUEHANNA
18425,"GREELEY, PA",GREELEY,PA,PIKE
18054,"GREEN LANE, PA",GREEN LANE,PA,MONTGOMERY
17225,"GREENCASTLE, PA",GREENCASTLE,PA,FRANKLIN
15047,"GREENOCK, PA",GREENOCK,PA,ALLEGHENY
15338,"GREENSBORO, PA",GREENSBORO,PA,GREENE
15601,"GREENSBURG, PA",GREENSBURG,PA,WESTMORELAND
15605,"GREENSBURG, PA",GREENSBURG,PA,WESTMORELAND
18426,"GREENTOWN, PA",GREENTOWN,PA,PIKE
16125,"GREENVILLE, PA",GREENVILLE,PA,MERCER
15442,"GRINDSTONE, PA",GRINDSTONE,PA,FAYETTE
16127,"GROVE CITY, PA",GROVE CITY,PA,MERCER
16327,"GUYS MILLS, PA",GUYS MILLS,PA,CRAWFORD
19436,"GWYNEDD, PA",GWYNEDD,PA,MONTGOMERY
19437,"GWYNEDD VALLEY, PA",GWYNEDD VALLEY,PA,MONTGOMERY
16130,"HADLEY, PA",HADLEY,PA,MERCER
17032,"HALIFAX, PA",HALIFAX,PA,DAUPHIN
18822,"HALLSTEAD, PA",HALLSTEAD,PA,SUSQUEHANNA
19526,"HAMBURG, PA",HAMBURG,PA,BERKS
15744,"HAMILTON, PA",HAMILTON,PA,JEFFERSON
18427,"HAMLIN, PA",HAMLIN,PA,WAYNE
15635,"HANNASTOWN, PA",HANNASTOWN,PA,WESTMORELAND
17331,"HANOVER, PA",HANOVER,PA,YORK
17334,"HANOVER, PA",HANOVER,PA,YORK
16421,"HARBORCREEK, PA",HARBORCREEK,PA,ERIE
18823,"HARFORD, PA",HARFORD,PA,SUSQUEHANNA
18225,"HARLEIGH, PA",HARLEIGH,PA,LUZERNE
19438,"HARLEYSVILLE, PA",HARLEYSVILLE,PA,MONTGOMERY
16422,"HARMONSBURG, PA",HARMONSBURG,PA,CRAWFORD
16037,"HARMONY, PA",HARMONY,PA,BUTLER
17101,"HARRISBURG, PA",HARRISBURG,PA,DAUPHIN
17102,"HARRISBURG, PA",HARRISBURG,PA,DAUPHIN
17103,"HARRISBURG, PA",HARRISBURG,PA,DAUPHIN
17104,"HARRISBURG, PA",HARRISBURG,PA,DAUPHIN
17105,"HARRISBURG, PA",HARRISBURG,PA,DAUPHIN
17106,"HARRISBURG, PA",HARRISBURG,PA,DAUPHIN
17107,"HARRISBURG, PA",HARRISBURG,PA,DAUPHIN
17108,"HARRISBURG, PA",HARRISBURG,PA,DAUPHIN
17109,"HARRISBURG, PA",HARRISBURG,PA,DAUPHIN
17110,"HARRISBURG, PA",HARRISBURG,PA,DAUPHIN
17111,"HARRISBURG, PA",HARRISBURG,PA,DAUPHIN
17112,"HARRISBURG, PA",HARRISBURG,PA,DAUPHIN
17113,"HARRISBURG, PA",HARRISBURG,PA,DAUPHIN
17120,"HARRISBURG, PA",HARRISBURG,PA,DAUPHIN
17122,"HARRISBURG, PA",HARRISBURG,PA,DAUPHIN
17123,"HARRISBURG, PA",HARRISBURG,PA,DAUPHIN
17126,"HARRISBURG, PA",HARRISBURG,PA,DAUPHIN
17140,"HARRISBURG, PA",HARRISBURG,PA,DAUPHIN
17177,"HARRISBURG, PA",HARRISBURG,PA,DAUPHIN
15636,"HARRISON CITY, PA",HARRISON CITY,PA,WESTMORELAND
16927,"HARRISON VALLEY, PA",HARRISON VALLEY,PA,POTTER
17228,"HARRISONVILLE, PA",HARRISONVILLE,PA,FULTON
16038,"HARRISVILLE, PA",HARRISVILLE,PA,BUTLER
17829,"HARTLETON, PA",HARTLETON,PA,UNION
16131,"HARTSTOWN, PA",HARTSTOWN,PA,CRAWFORD
18618,"HARVEYS LAKE, PA",HARVEYS LAKE,PA,LUZERNE
15049,"HARWICK, PA",HARWICK,PA,ALLEGHENY
16646,"HASTINGS, PA",HASTINGS,PA,CAMBRIA
19040,"HATBORO, PA",HATBORO,PA,MONTGOMERY
19440,"HATFIELD, PA",HATFIELD,PA,MONTGOMERY
19041,"HAVERFORD, PA",HAVERFORD,PA,MONTGOMERY
19083,"HAVERTOWN, PA",HAVERTOWN,PA,DELAWARE
16840,"HAWK RUN, PA",HAWK RUN,PA,CLEARFIELD
18428,"HAWLEY, PA",HAWLEY,PA,PIKE
16230,"HAWTHORN, PA",HAWTHORN,PA,CLARION
16733,"HAZEL HURST, PA",HAZEL HURST,PA,MCKEAN
18201,"HAZLETON, PA",HAZLETON,PA,LUZERNE
18202,"HAZLETON, PA",HAZLETON,PA,LUZERNE
17938,"HEGINS, PA",HEGINS,PA,SCHUYLKILL
15745,"HEILWOOD, PA",HEILWOOD,PA,INDIANA
18055,"HELLERTOWN, PA",HELLERTOWN,PA,NORTHAMPTON
15339,"HENDERSONVILLE, PA",HENDERSONVILLE,PA,WASHINGTON
18332,"HENRYVILLE, PA",HENRYVILLE,PA,MONROE
18056,"HEREFORD, PA",HEREFORD,PA,BERKS
16039,"HERMAN, PA",HERMAN,PA,BUTLER
15637,"HERMINIE, PA",HERMINIE,PA,WESTMORELAND
16148,"HERMITAGE, PA",HERMITAGE,PA,MERCER
17830,"HERNDON, PA",HERNDON,PA,NORTHUMBERLAND
17033,"HERSHEY, PA",HERSHEY,PA,DAUPHIN
16647,"HESSTON, PA",HESSTON,PA,HUNTINGDON
15443,"HIBBS, PA",HIBBS,PA,FAYETTE
15340,"HICKORY, PA",HICKORY,PA,WASHINGTON
15502,"HIDDEN VALLEY, PA",HIDDEN VALLEY,PA,SOMERSET
17034,"HIGHSPIRE, PA",HIGHSPIRE,PA,DAUPHIN
15444,"HILLER, PA",HILLER,PA,FAYETTE
16040,"HILLIARDS, PA",HILLIARDS,PA,BUTLER
15746,"HILLSDALE, PA",HILLSDALE,PA,INDIANA
18619,"HILLSGROVE, PA",HILLSGROVE,PA,SULLIVAN
16132,"HILLSVILLE, PA",HILLSVILLE,PA,LAWRENCE
18927,"HILLTOWN, PA",HILLTOWN,PA,BUCKS
15341,"HOLBROOK, PA",HOLBROOK,PA,GREENE
18928,"HOLICONG, PA",HOLICONG,PA,BUCKS
16648,"HOLLIDAYSBURG, PA",HOLLIDAYSBURG,PA,BLAIR
15935,"HOLLSOPPLE, PA",HOLLSOPPLE,PA,SOMERSET
19043,"HOLMES, PA",HOLMES,PA,DELAWARE
17532,"HOLTWOOD, PA",HOLTWOOD,PA,LANCASTER
15747,"HOME, PA",HOME,PA,INDIANA
15748,"HOMER CITY, PA",HOMER CITY,PA,INDIANA
15120,"HOMESTEAD, PA",HOMESTEAD,PA,ALLEGHENY
18431,"HONESDALE, PA",HONESDALE,PA,WAYNE
19344,"HONEY BROOK, PA",HONEY BROOK,PA,CHESTER
17035,"HONEY GROVE, PA",HONEY GROVE,PA,JUNIATA
15050,"HOOKSTOWN, PA",HOOKSTOWN,PA,BEAVER
15936,"HOOVERSVILLE, PA",HOOVERSVILLE,PA,SOMERSET
18824,"HOP BOTTOM, PA",HOP BOTTOM,PA,SUSQUEHANNA
17533,"HOPELAND, PA",HOPELAND,PA,LANCASTER
16650,"HOPEWELL, PA",HOPEWELL,PA,BEDFORD
15445,"HOPWOOD, PA",HOPWOOD,PA,FAYETTE
19044,"HORSHAM, PA",HORSHAM,PA,MONTGOMERY
15638,"HOSTETTER, PA",HOSTETTER,PA,WESTMORELAND
15342,"HOUSTON, PA",HOUSTON,PA,WASHINGTON
16651,"HOUTZDALE, PA",HOUTZDALE,PA,CLEARFIELD
16698,"HOUTZDALE, PA",HOUTZDALE,PA,CLEARFIELD
16841,"HOWARD, PA",HOWARD,PA,CENTRE
17737,"HUGHESVILLE, PA",HUGHESVILLE,PA,LYCOMING
17831,"HUMMELS WHARF, PA",HUMMELS WHARF,PA,SNYDER
17036,"HUMMELSTOWN, PA",HUMMELSTOWN,PA,DAUPHIN
15639,"HUNKER, PA",HUNKER,PA,WESTMORELAND
18621,"HUNLOCK CREEK, PA",HUNLOCK CREEK,PA,LUZERNE
16652,"HUNTINGDON, PA",HUNTINGDON,PA,HUNTINGDON
19006,"HUNTINGDON VALLEY, PA",HUNTINGDON VALLEY,PA,MONTGOMERY
18622,"HUNTINGTON MILLS, PA",HUNTINGTON MILLS,PA,LUZERNE
17229,"HUSTONTOWN, PA",HUSTONTOWN,PA,FULTON
16843,"HYDE, PA",HYDE,PA,CLEARFIELD
15641,"HYDE PARK, PA",HYDE PARK,PA,WESTMORELAND
16328,"HYDETOWN, PA",HYDETOWN,PA,CRAWFORD
15545,"HYNDMAN, PA",HYNDMAN,PA,BEDFORD
17037,"ICKESBURG, PA",ICKESBURG,PA,PERRY
16655,"IMLER, PA",IMLER,PA,BEDFORD
19345,"IMMACULATA, PA",IMMACULATA,PA,CHESTER
15126,"IMPERIAL, PA",IMPERIAL,PA,ALLEGHENY
15446,"INDIAN HEAD, PA",INDIAN HEAD,PA,FAYETTE
15701,"INDIANA, PA",INDIANA,PA,INDIANA
15705,"INDIANA, PA",INDIANA,PA,INDIANA
15051,"INDIANOLA, PA",INDIANOLA,PA,ALLEGHENY
15052,"INDUSTRY, PA",INDUSTRY,PA,BEAVER
15127,"INGOMAR, PA",INGOMAR,PA,ALLEGHENY
17534,"INTERCOURSE, PA",INTERCOURSE,PA,LANCASTER
16329,"IRVINE, PA",IRVINE,PA,WARREN
16656,"IRVONA, PA",IRVONA,PA,CLEARFIELD
15642,"IRWIN, PA",IRWIN,PA,WESTMORELAND
18825,"JACKSON, PA",JACKSON,PA,SUSQUEHANNA
16133,"JACKSON CENTER, PA",JACKSON CENTER,PA,MERCER
15448,"JACOBS CREEK, PA",JACOBS CREEK,PA,WESTMORELAND
16734,"JAMES CITY, PA",JAMES CITY,PA,ELK
16657,"JAMES CREEK, PA",JAMES CREEK,PA,HUNTINGDON
16134,"JAMESTOWN, PA",JAMESTOWN,PA,MERCER
18929,"JAMISON, PA",JAMISON,PA,BUCKS
15644,"JEANNETTE, PA",JEANNETTE,PA,WESTMORELAND
15344,"JEFFERSON, PA",JEFFERSON,PA,GREENE
19046,"JENKINTOWN, PA",JENKINTOWN,PA,MONTGOMERY
15546,"JENNERS, PA",JENNERS,PA,SOMERSET
15547,"JENNERSTOWN, PA",JENNERSTOWN,PA,SOMERSET
18433,"JERMYN, PA",JERMYN,PA,LACKAWANNA
15937,"JEROME, PA",JEROME,PA,SOMERSET
17740,"JERSEY SHORE, PA",JERSEY SHORE,PA,LYCOMING
18434,"JESSUP, PA",JESSUP,PA,LACKAWANNA
18229,"JIM THORPE, PA",JIM THORPE,PA,CARBON
15053,"JOFFRE, PA",JOFFRE,PA,WASHINGTON
15845,"JOHNSONBURG, PA",JOHNSONBURG,PA,ELK
15901,"JOHNSTOWN, PA",JOHNSTOWN,PA,CAMBRIA
15902,"JOHNSTOWN, PA",JOHNSTOWN,PA,CAMBRIA
15904,"JOHNSTOWN, PA",JOHNSTOWN,PA,CAMBRIA
15905,"JOHNSTOWN, PA",JOHNSTOWN,PA,CAMBRIA
15906,"JOHNSTOWN, PA",JOHNSTOWN,PA,CAMBRIA
15907,"JOHNSTOWN, PA",JOHNSTOWN,PA,CAMBRIA
15909,"JOHNSTOWN, PA",JOHNSTOWN,PA,CAMBRIA
15646,"JONES MILLS, PA",JONES MILLS,PA,WESTMORELAND
17038,"JONESTOWN, PA",JONESTOWN,PA,LEBANON
15750,"JOSEPHINE, PA",JOSEPHINE,PA,INDIANA
16844,"JULIAN, PA",JULIAN,PA,CENTRE
16735,"KANE, PA",KANE,PA,MCKEAN
16041,"KARNS CITY, PA",KARNS CITY,PA,BUTLER
16845,"KARTHAUS, PA",KARTHAUS,PA,CLEARFIELD
15449,"KEISTERVILLE, PA",KEISTERVILLE,PA,FAYETTE
18231,"KELAYRES, PA",KELAYRES,PA,SCHUYLKILL
19346,"KELTON, PA",KELTON,PA,CHESTER
19347,"KEMBLESVILLE, PA",KEMBLESVILLE,PA,CHESTER
19529,"KEMPTON, PA",KEMPTON,PA,BERKS
16374,"KENNERDELL, PA",KENNERDELL,PA,VENANGO
19348,"KENNETT SQUARE, PA",KENNETT SQUARE,PA,CHESTER
15752,"KENT, PA",KENT,PA,INDIANA
15846,"KERSEY, PA",KERSEY,PA,ELK
19442,"KIMBERTON, PA",KIMBERTON,PA,CHESTER
19406,"KING OF PRUSSIA, PA",KING OF PRUSSIA,PA,MONTGOMERY
18826,"KINGSLEY, PA",KINGSLEY,PA,SUSQUEHANNA
18704,"KINGSTON, PA",KINGSTON,PA,LUZERNE
18930,"KINTNERSVILLE, PA",KINTNERSVILLE,PA,BUCKS
17535,"KINZERS, PA",KINZERS,PA,LANCASTER
17536,"KIRKWOOD, PA",KIRKWOOD,PA,LANCASTER
16201,"KITTANNING, PA",KITTANNING,PA,ARMSTRONG
17039,"KLEINFELTERSVILLE, PA",KLEINFELTERSVILLE,PA,LEBANON
17941,"KLINGERSTOWN, PA",KLINGERSTOWN,PA,SCHUYLKILL
16232,"KNOX, PA",KNOX,PA,CLARION
15847,"KNOX DALE, PA",KNOX DALE,PA,JEFFERSON
16928,"KNOXVILLE, PA",KNOXVILLE,PA,TIOGA
16136,"KOPPEL, PA",KOPPEL,PA,BEAVER
16331,"KOSSUTH, PA",KOSSUTH,PA,CLARION
17833,"KREAMER, PA",KREAMER,PA,SNYDER
18333,"KRESGEVILLE, PA",KRESGEVILLE,PA,MONROE
17834,"KULPMONT, PA",KULPMONT,PA,NORTHUMBERLAND
19443,"KULPSVILLE, PA",KULPSVILLE,PA,MONTGOMERY
18058,"KUNKLETOWN, PA",KUNKLETOWN,PA,MONROE
19530,"KUTZTOWN, PA",KUTZTOWN,PA,BERKS
16847,"KYLERTOWN, PA",KYLERTOWN,PA,CLEARFIELD
15450,"LA BELLE, PA",LA BELLE,PA,FAYETTE
15753,"LA JOSE, PA",LA JOSE,PA,CLEARFIELD
18440,"LA PLUME, PA",LA PLUME,PA,LACKAWANNA
18623,"LACEYVILLE, PA",LACEYVILLE,PA,WYOMING
18435,"LACKAWAXEN, PA",LACKAWAXEN,PA,PIKE
19444,"LAFAYETTE HILL, PA",LAFAYETTE HILL,PA,MONTGOMERY
18931,"LAHASKA, PA",LAHASKA,PA,BUCKS
17742,"LAIRDSVILLE, PA",LAIRDSVILLE,PA,LYCOMING
18436,"LAKE ARIEL, PA",LAKE ARIEL,PA,WAYNE
16423,"LAKE CITY, PA",LAKE CITY,PA,ERIE
18437,"LAKE COMO, PA",LAKE COMO,PA,WAYNE
18624,"LAKE HARMONY, PA",LAKE HARMONY,PA,CARBON
15451,"LAKE LYNN, PA",LAKE LYNN,PA,FAYETTE
18625,"LAKE WINOLA, PA",LAKE WINOLA,PA,WYOMING
18438,"LAKEVILLE, PA",LAKEVILLE,PA,WAYNE
18439,"LAKEWOOD, PA",LAKEWOOD,PA,WAYNE
16848,"LAMAR, PA",LAMAR,PA,CLINTON
16375,"LAMARTINE, PA",LAMARTINE,PA,CLARION
17537,"LAMPETER, PA",LAMPETER,PA,LANCASTER
17601,"LANCASTER, PA",LANCASTER,PA,LANCASTER
17602,"LANCASTER, PA",LANCASTER,PA,LANCASTER
17603,"LANCASTER, PA",LANCASTER,PA,LANCASTER
17604,"LANCASTER, PA",LANCASTER,PA,LANCASTER
17605,"LANCASTER, PA",LANCASTER,PA,LANCASTER
17606,"LANCASTER, PA",LANCASTER,PA,LANCASTER
17607,"LANCASTER, PA",LANCASTER,PA,LANCASTER
17608,"LANCASTER, PA",LANCASTER,PA,LANCASTER
19350,"LANDENBERG, PA",LANDENBERG,PA,CHESTER
17040,"LANDISBURG, PA",LANDISBURG,PA,PERRY
17538,"LANDISVILLE, PA",LANDISVILLE,PA,LANCASTER
18827,"LANESBORO, PA",LANESBORO,PA,SUSQUEHANNA
15054,"LANGELOTH, PA",LANGELOTH,PA,WASHINGTON
19047,"LANGHORNE, PA",LANGHORNE,PA,BUCKS
19446,"LANSDALE, PA",LANSDALE,PA,MONTGOMERY
19050,"LANSDOWNE, PA",LANSDOWNE,PA,DELAWARE
16849,"LANSE, PA",LANSE,PA,CLEARFIELD
18232,"LANSFORD, PA",LANSFORD,PA,CARBON
18626,"LAPORTE, PA",LAPORTE,PA,SULLIVAN
15647,"LARIMER, PA",LARIMER,PA,WESTMORELAND
15650,"LATROBE, PA",LATROBE,PA,WESTMORELAND
18234,"LATTIMER MINES, PA",LATTIMER MINES,PA,LUZERNE
15655,"LAUGHLINTOWN, PA",LAUGHLINTOWN,PA,WESTMORELAND
17835,"LAURELTON, PA",LAURELTON,PA,UNION
18059,"LAURYS STATION, PA",LAURYS STATION,PA,LEHIGH
17943,"LAVELLE, PA",LAVELLE,PA,SCHUYLKILL
17041,"LAWN, PA",LAWN,PA,LEBANON
15055,"LAWRENCE, PA",LAWRENCE,PA,WASHINGTON
16929,"LAWRENCEVILLE, PA",LAWRENCEVILLE,PA,TIOGA
18828,"LAWTON, PA",LAWTON,PA,SUSQUEHANNA
18829,"LE RAYSVILLE, PA",LE RAYSVILLE,PA,BRADFORD
17042,"LEBANON, PA",LEBANON,PA,LEBANON
17046,"LEBANON, PA",LEBANON,PA,LEBANON
17836,"LECK KILL, PA",LECK KILL,PA,NORTHUMBERLAND
15454,"LECKRONE, PA",LECKRONE,PA,FAYETTE
19450,"LEDERACH, PA",LEDERACH,PA,MONTGOMERY
15656,"LEECHBURG, PA",LEECHBURG,PA,ARMSTRONG
16233,"LEEPER, PA",LEEPER,PA,CLARION
19533,"LEESPORT, PA",LEESPORT,PA,BERKS
15056,"LEETSDALE, PA",LEETSDALE,PA,ALLEGHENY
18001,"LEHIGH VALLEY, PA",LEHIGH VALLEY,PA,NORTHAMPTON
18002,"LEHIGH VALLEY, PA",LEHIGH VALLEY,PA,NORTHAMPTON
18003,"LEHIGH VALLEY, PA",LEHIGH VALLEY,PA,NORTHAMPTON
18235,"LEHIGHTON, PA",LEHIGHTON,PA,CARBON
18627,"LEHMAN, PA",LEHMAN,PA,LUZERNE
15455,"LEISENRING, PA",LEISENRING,PA,FAYETTE
17231,"LEMASTERS, PA",LEMASTERS,PA,FRANKLIN
16851,"LEMONT, PA",LEMONT,PA,CENTRE
15456,"LEMONT FURNACE, PA",LEMONT FURNACE,PA,FAYETTE
17043,"LEMOYNE, PA",LEMOYNE,PA,CUMBERLAND
19534,"LENHARTSVILLE, PA",LENHARTSVILLE,PA,BERKS
19052,"LENNI, PA",LENNI,PA,DELAWARE
18441,"LENOXVILLE, PA",LENOXVILLE,PA,SUSQUEHANNA
17540,"LEOLA, PA",LEOLA,PA,LANCASTER
19054,"LEVITTOWN, PA",LEVITTOWN,PA,BUCKS
19055,"LEVITTOWN, PA",LEVITTOWN,PA,BUCKS
19056,"LEVITTOWN, PA",LEVITTOWN,PA,BUCKS
19057,"LEVITTOWN, PA",LEVITTOWN,PA,BUCKS
19058,"LEVITTOWN, PA",LEVITTOWN,PA,BUCKS
16738,"LEWIS RUN, PA",LEWIS RUN,PA,MCKEAN
17339,"LEWISBERRY, PA",LEWISBERRY,PA,YORK
17837,"LEWISBURG, PA",LEWISBURG,PA,UNION
17044,"LEWISTOWN, PA",LEWISTOWN,PA,MIFFLIN
19351,"LEWISVILLE, PA",LEWISVILLE,PA,CHESTER
16930,"LIBERTY, PA",LIBERTY,PA,TIOGA
17839,"LIGHTSTREET, PA",LIGHTSTREET,PA,COLUMBIA
15658,"LIGONIER, PA",LIGONIER,PA,WESTMORELAND
15938,"LILLY, PA",LILLY,PA,CAMBRIA
19535,"LIMEKILN, PA",LIMEKILN,PA,BERKS
18060,"LIMEPORT, PA",LIMEPORT,PA,LEHIGH
16234,"LIMESTONE, PA",LIMESTONE,PA,CLARION
19352,"LINCOLN UNIVERSITY, PA",LINCOLN UNIVERSITY,PA,CHESTER
17744,"LINDEN, PA",LINDEN,PA,LYCOMING
18932,"LINE LEXINGTON, PA",LINE LEXINGTON,PA,BUCKS
16424,"LINESVILLE, PA",LINESVILLE,PA,CRAWFORD
19353,"LIONVILLE, PA",LIONVILLE,PA,CHESTER
15549,"LISTIE, PA",LISTIE,PA,SOMERSET
17543,"LITITZ, PA",LITITZ,PA,LANCASTER
18830,"LITTLE MEADOWS, PA",LITTLE MEADOWS,PA,SUSQUEHANNA
17340,"LITTLESTOWN, PA",LITTLESTOWN,PA,ADAMS
17045,"LIVERPOOL, PA",LIVERPOOL,PA,PERRY
17944,"LLEWELLYN, PA",LLEWELLYN,PA,SCHUYLKILL
17745,"LOCK HAVEN, PA",LOCK HAVEN,PA,CLINTON
17840,"LOCUST GAP, PA",LOCUST GAP,PA,NORTHUMBERLAND
17945,"LOCUSTDALE, PA",LOCUSTDALE,PA,SCHUYLKILL
17747,"LOGANTON, PA",LOGANTON,PA,CLINTON
17342,"LOGANVILLE, PA",LOGANVILLE,PA,YORK
18334,"LONG POND, PA",LONG POND,PA,MONROE
18628,"LOPEZ, PA",LOPEZ,PA,SULLIVAN
15940,"LORETTO, PA",LORETTO,PA,CAMBRIA
15660,"LOWBER, PA",LOWBER,PA,WESTMORELAND
15661,"LOYALHANNA, PA",LOYALHANNA,PA,WESTMORELAND
16659,"LOYSBURG, PA",LOYSBURG,PA,BEDFORD
17047,"LOYSVILLE, PA",LOYSVILLE,PA,PERRY
15754,"LUCERNEMINES, PA",LUCERNEMINES,PA,INDIANA
16235,"LUCINDA, PA",LUCINDA,PA,CLARION
16333,"LUDLOW, PA",LUDLOW,PA,MCKEAN
18933,"LUMBERVILLE, PA",LUMBERVILLE,PA,BUCKS
17232,"LURGAN, PA",LURGAN,PA,FRANKLIN
15848,"LUTHERSBURG, PA",LUTHERSBURG,PA,CLEARFIELD
15662,"LUXOR, PA",LUXOR,PA,WESTMORELAND
18709,"LUZERNE, PA",LUZERNE,PA,LUZERNE
17048,"LYKENS, PA",LYKENS,PA,DAUPHIN
19354,"LYNDELL, PA",LYNDELL,PA,CHESTER
16045,"LYNDORA, PA",LYNDORA,PA,BUTLER
19536,"LYON STATION, PA",LYON STATION,PA,BERKS
17750,"MACKEYVILLE, PA",MACKEYVILLE,PA,CLINTON
18062,"MACUNGIE, PA",MACUNGIE,PA,LEHIGH
16661,"MADERA, PA",MADERA,PA,CLEARFIELD
15663,"MADISON, PA",MADISON,PA,WESTMORELAND
16852,"MADISONBURG, PA",MADISONBURG,PA,CENTRE
15757,"MAHAFFEY, PA",MAHAFFEY,PA,CLEARFIELD
17948,"MAHANOY CITY, PA",MAHANOY CITY,PA,SCHUYLKILL
17949,"MAHANOY PLANE, PA",MAHANOY PLANE,PA,SCHUYLKILL
16932,"MAINESBURG, PA",MAINESBURG,PA,TIOGA
19451,"MAINLAND, PA",MAINLAND,PA,MONTGOMERY
19355,"MALVERN, PA",MALVERN,PA,CHESTER
15664,"MAMMOTH, PA",MAMMOTH,PA,WESTMORELAND
17345,"MANCHESTER, PA",MANCHESTER,PA,YORK
17545,"MANHEIM, PA",MANHEIM,PA,LANCASTER
15550,"MANNS CHOICE, PA",MANNS CHOICE,PA,BEDFORD
15665,"MANOR, PA",MANOR,PA,WESTMORELAND
16238,"MANORVILLE, PA",MANORVILLE,PA,ARMSTRONG
16933,"MANSFIELD, PA",MANSFIELD,PA,TIOGA
17052,"MAPLETON DEPOT, PA",MAPLETON DEPOT,PA,HUNTINGDON
17951,"MAR LIN, PA",MAR LIN,PA,SCHUYLKILL
16334,"MARBLE, PA",MARBLE,PA,CLARION
19061,"MARCUS HOOK, PA",MARCUS HOOK,PA,DELAWARE
15345,"MARIANNA, PA",MARIANNA,PA,WASHINGTON
16239,"MARIENVILLE, PA",MARIENVILLE,PA,FOREST
17547,"MARIETTA, PA",MARIETTA,PA,LANCASTER
17235,"MARION, PA",MARION,PA,FRANKLIN
15759,"MARION CENTER, PA",MARION CENTER,PA,INDIANA
17832,"MARION HEIGHTS, PA",MARION HEIGHTS,PA,NORTHUMBERLAND
15551,"MARKLETON, PA",MARKLETON,PA,SOMERSET
15459,"MARKLEYSBURG, PA",MARKLEYSBURG,PA,FAYETTE
16046,"MARS, PA",MARS,PA,BUTLER
18335,"MARSHALLS CREEK, PA",MARSHALLS CREEK,PA,MONROE
15760,"MARSTELLER, PA",MARSTELLER,PA,CAMBRIA
15460,"MARTIN, PA",MARTIN,PA,FAYETTE
17549,"MARTINDALE, PA",MARTINDALE,PA,LANCASTER
18063,"MARTINS CREEK, PA",MARTINS CREEK,PA,NORTHAMPTON
16662,"MARTINSBURG, PA",MARTINSBURG,PA,BLAIR
17952,"MARY D, PA",MARY D,PA,SCHUYLKILL
17053,"MARYSVILLE, PA",MARYSVILLE,PA,PERRY
15461,"MASONTOWN, PA",MASONTOWN,PA,FAYETTE
18336,"MATAMORAS, PA",MATAMORAS,PA,PIKE
15346,"MATHER, PA",MATHER,PA,GREENE
17054,"MATTAWANA, PA",MATTAWANA,PA,MIFFLIN
19538,"MAXATAWNY, PA",MAXATAWNY,PA,BERKS
16240,"MAYPORT, PA",MAYPORT,PA,CLARION
17550,"MAYTOWN, PA",MAYTOWN,PA,LANCASTER
17049,"MC ALISTERVILLE, PA",MC ALISTERVILLE,PA,JUNIATA
15458,"MC CLELLANDTOWN, PA",MC CLELLANDTOWN,PA,FAYETTE
17841,"MC CLURE, PA",MC CLURE,PA,MIFFLIN
17233,"MC CONNELLSBURG, PA",MC CONNELLSBURG,PA,FULTON
16660,"MC CONNELLSTOWN, PA",MC CONNELLSTOWN,PA,HUNTINGDON
15057,"MC DONALD, PA",MC DONALD,PA,WASHINGTON
17748,"MC ELHATTAN, PA",MC ELHATTAN,PA,CLINTON
17749,"MC EWENSVILLE, PA",MC EWENSVILLE,PA,NORTHUMBERLAND
16236,"MC GRANN, PA",MC GRANN,PA,ARMSTRONG
15756,"MC INTYRE, PA",MC INTYRE,PA,INDIANA
16426,"MC KEAN, PA",MC KEAN,PA,ERIE
15136,"MC KEES ROCKS, PA",MC KEES ROCKS,PA,ALLEGHENY
17343,"MC KNIGHTSTOWN, PA",MC KNIGHTSTOWN,PA,ADAMS
17344,"MC SHERRYSTOWN, PA",MC SHERRYSTOWN,PA,ADAMS
17051,"MC VEYTOWN, PA",MC VEYTOWN,PA,MIFFLIN
18237,"MCADOO, PA",MCADOO,PA,SCHUYLKILL
15131,"MCKEESPORT, PA",MCKEESPORT,PA,ALLEGHENY
15132,"MCKEESPORT, PA",MCKEESPORT,PA,ALLEGHENY
15133,"MCKEESPORT, PA",MCKEESPORT,PA,ALLEGHENY
15134,"MCKEESPORT, PA",MCKEESPORT,PA,ALLEGHENY
15135,"MCKEESPORT, PA",MCKEESPORT,PA,ALLEGHENY
15347,"MEADOW LANDS, PA",MEADOW LANDS,PA,WASHINGTON
16335,"MEADVILLE, PA",MEADVILLE,PA,CRAWFORD
17050,"MECHANICSBURG, PA",MECHANICSBURG,PA,CUMBERLAND
17055,"MECHANICSBURG, PA",MECHANICSBURG,PA,CUMBERLAND
18934,"MECHANICSVILLE, PA",MECHANICSVILLE,PA,BUCKS
19063,"MEDIA, PA",MEDIA,PA,DELAWARE
19065,"MEDIA, PA",MEDIA,PA,DELAWARE
18629,"MEHOOPANY, PA",MEHOOPANY,PA,WYOMING
15462,"MELCROFT, PA",MELCROFT,PA,FAYETTE
19357,"MENDENHALL, PA",MENDENHALL,PA,CHESTER
15761,"MENTCLE, PA",MENTCLE,PA,INDIANA
16137,"MERCER, PA",MERCER,PA,MERCER
17236,"MERCERSBURG, PA",MERCERSBURG,PA,FRANKLIN
19066,"MERION STATION, PA",MERION STATION,PA,MONTGOMERY
15463,"MERRITTSTOWN, PA",MERRITTSTOWN,PA,FAYETTE
19539,"MERTZTOWN, PA",MERTZTOWN,PA,BERKS
18630,"MESHOPPEN, PA",MESHOPPEN,PA,WYOMING
17056,"MEXICO, PA",MEXICO,PA,JUNIATA
15552,"MEYERSDALE, PA",MEYERSDALE,PA,SOMERSET
17842,"MIDDLEBURG, PA",MIDDLEBURG,PA,SNYDER
16935,"MIDDLEBURY CENTER, PA",MIDDLEBURY CENTER,PA,TIOGA
17953,"MIDDLEPORT, PA",MIDDLEPORT,PA,SCHUYLKILL
17057,"MIDDLETOWN, PA",MIDDLETOWN,PA,DAUPHIN
15059,"MIDLAND, PA",MIDLAND,PA,BEAVER
15060,"MIDWAY, PA",MIDWAY,PA,WASHINGTON
17058,"MIFFLIN, PA",MIFFLIN,PA,JUNIATA
17844,"MIFFLINBURG, PA",MIFFLINBURG,PA,UNION
17059,"MIFFLINTOWN, PA",MIFFLINTOWN,PA,JUNIATA
18631,"MIFFLINVILLE, PA",MIFFLINVILLE,PA,COLUMBIA
18831,"MILAN, PA",MILAN,PA,BRADFORD
18443,"MILANVILLE, PA",MILANVILLE,PA,WAYNE
18632,"MILDRED, PA",MILDRED,PA,SULLIVAN
16853,"MILESBURG, PA",MILESBURG,PA,CENTRE
18337,"MILFORD, PA",MILFORD,PA,PIKE
18935,"MILFORD SQUARE, PA",MILFORD SQUARE,PA,BUCKS
17060,"MILL CREEK, PA",MILL CREEK,PA,HUNTINGDON
17751,"MILL HALL, PA",MILL HALL,PA,CLINTON
15464,"MILL RUN, PA",MILL RUN,PA,FAYETTE
16427,"MILL VILLAGE, PA",MILL VILLAGE,PA,ERIE
17061,"MILLERSBURG, PA",MILLERSBURG,PA,DAUPHIN
17062,"MILLERSTOWN, PA",MILLERSTOWN,PA,PERRY
17551,"MILLERSVILLE, PA",MILLERSVILLE,PA,LANCASTER
16936,"MILLERTON, PA",MILLERTON,PA,TIOGA
16854,"MILLHEIM, PA",MILLHEIM,PA,CENTRE
17845,"MILLMONT, PA",MILLMONT,PA,UNION
18340,"MILLRIFT, PA",MILLRIFT,PA,PIKE
16937,"MILLS, PA",MILLS,PA,POTTER
15348,"MILLSBORO, PA",MILLSBORO,PA,WASHINGTON
17846,"MILLVILLE, PA",MILLVILLE,PA,COLUMBIA
18239,"MILNESVILLE, PA",MILNESVILLE,PA,LUZERNE
17063,"MILROY, PA",MILROY,PA,MIFFLIN
17847,"MILTON, PA",MILTON,PA,NORTHUMBERLAND
15942,"MINERAL POINT, PA",MINERAL POINT,PA,CAMBRIA
16855,"MINERAL SPRINGS, PA",MINERAL SPRINGS,PA,CLEARFIELD
17954,"MINERSVILLE, PA",MINERSVILLE,PA,SCHUYLKILL
16856,"MINGOVILLE, PA",MINGOVILLE,PA,CENTRE
18341,"MINISINK HILLS, PA",MINISINK HILLS,PA,MONROE
19358,"MODENA, PA",MODENA,PA,CHESTER
19540,"MOHNTON, PA",MOHNTON,PA,BERKS
19541,"MOHRSVILLE, PA",MOHRSVILLE,PA,BERKS
15061,"MONACA, PA",MONACA,PA,BEAVER
15062,"MONESSEN, PA",MONESSEN,PA,WESTMORELAND
19542,"MONOCACY STATION, PA",MONOCACY STATION,PA,BERKS
15063,"MONONGAHELA, PA",MONONGAHELA,PA,WASHINGTON
18832,"MONROETON, PA",MONROETON,PA,BRADFORD
15146,"MONROEVILLE, PA",MONROEVILLE,PA,ALLEGHENY
17237,"MONT ALTO, PA",MONT ALTO,PA,FRANKLIN
19453,"MONT CLARE, PA",MONT CLARE,PA,MONTGOMERY
17850,"MONTANDON, PA",MONTANDON,PA,NORTHUMBERLAND
17752,"MONTGOMERY, PA",MONTGOMERY,PA,LYCOMING
18936,"MONTGOMERYVILLE, PA",MONTGOMERYVILLE,PA,MONTGOMERY
17754,"MONTOURSVILLE, PA",MONTOURSVILLE,PA,LYCOMING
18801,"MONTROSE, PA",MONTROSE,PA,SUSQUEHANNA
18507,"MOOSIC, PA",MOOSIC,PA,LACKAWANNA
16663,"MORANN, PA",MORANN,PA,CLEARFIELD
15064,"MORGAN, PA",MORGAN,PA,ALLEGHENY
19543,"MORGANTOWN, PA",MORGANTOWN,PA,BERKS
16938,"MORRIS, PA",MORRIS,PA,TIOGA
16939,"MORRIS RUN, PA",MORRIS RUN,PA,TIOGA
16858,"MORRISDALE, PA",MORRISDALE,PA,CLEARFIELD
19067,"MORRISVILLE, PA",MORRISVILLE,PA,BUCKS
19070,"MORTON, PA",MORTON,PA,DELAWARE
18444,"MOSCOW, PA",MOSCOW,PA,LACKAWANNA
16859,"MOSHANNON, PA",MOSHANNON,PA,CENTRE
19544,"MOUNT AETNA, PA",MOUNT AETNA,PA,BERKS
18343,"MOUNT BETHEL, PA",MOUNT BETHEL,PA,NORTHAMPTON
15465,"MOUNT BRADDOCK, PA",MOUNT BRADDOCK,PA,FAYETTE
17851,"MOUNT CARMEL, PA",MOUNT CARMEL,PA,NORTHUMBERLAND
17064,"MOUNT GRETNA, PA",MOUNT GRETNA,PA,LEBANON
17065,"MOUNT HOLLY SPRINGS, PA",MOUNT HOLLY SPRINGS,PA,CUMBERLAND
16740,"MOUNT JEWETT, PA",MOUNT JEWETT,PA,MCKEAN
17552,"MOUNT JOY, PA",MOUNT JOY,PA,LANCASTER
15349,"MOUNT MORRIS, PA",MOUNT MORRIS,PA,GREENE
15666,"MOUNT PLEASANT, PA",MOUNT PLEASANT,PA,WESTMORELAND
17853,"MOUNT PLEASANT MILLS, PA",MOUNT PLEASANT MILLS,PA,SNYDER
18344,"MOUNT POCONO, PA",MOUNT POCONO,PA,MONROE
17066,"MOUNT UNION, PA",MOUNT UNION,PA,HUNTINGDON
17347,"MOUNT WOLF, PA",MOUNT WOLF,PA,YORK
18707,"MOUNTAIN TOP, PA",MOUNTAIN TOP,PA,LUZERNE
18342,"MOUNTAINHOME, PA",MOUNTAINHOME,PA,MONROE
17554,"MOUNTVILLE, PA",MOUNTVILLE,PA,LANCASTER
17957,"MUIR, PA",MUIR,PA,SCHUYLKILL
17756,"MUNCY, PA",MUNCY,PA,LYCOMING
17758,"MUNCY VALLEY, PA",MUNCY VALLEY,PA,SULLIVAN
16860,"MUNSON, PA",MUNSON,PA,CLEARFIELD
15668,"MURRYSVILLE, PA",MURRYSVILLE,PA,WESTMORELAND
15350,"MUSE, PA",MUSE,PA,WASHINGTON
17067,"MYERSTOWN, PA",MYERSTOWN,PA,LEBANON
18634,"NANTICOKE, PA",NANTICOKE,PA,LUZERNE
15943,"NANTY GLO, PA",NANTY GLO,PA,CAMBRIA
19072,"NARBERTH, PA",NARBERTH,PA,MONTGOMERY
17555,"NARVON, PA",NARVON,PA,LANCASTER
15065,"NATRONA HEIGHTS, PA",NATRONA HEIGHTS,PA,ALLEGHENY
18064,"NAZARETH, PA",NAZARETH,PA,NORTHAMPTON
17238,"NEEDMORE, PA",NEEDMORE,PA,FULTON
17239,"NEELYTON, PA",NEELYTON,PA,HUNTINGDON
18065,"NEFFS, PA",NEFFS,PA,LEHIGH
16940,"NELSON, PA",NELSON,PA,TIOGA
15351,"NEMACOLIN, PA",NEMACOLIN,PA,GREENE
18635,"NESCOPECK, PA",NESCOPECK,PA,LUZERNE
18240,"NESQUEHONING, PA",NESQUEHONING,PA,CARBON
18833,"NEW ALBANY, PA",NEW ALBANY,PA,BRADFORD
15670,"NEW ALEXANDRIA, PA",NEW ALEXANDRIA,PA,WESTMORELAND
15553,"NEW BALTIMORE, PA",NEW BALTIMORE,PA,SOMERSET
16140,"NEW BEDFORD, PA",NEW BEDFORD,PA,LAWRENCE
17855,"NEW BERLIN, PA",NEW BERLIN,PA,UNION
19545,"NEW BERLINVILLE, PA",NEW BERLINVILLE,PA,BERKS
16242,"NEW BETHLEHEM, PA",NEW BETHLEHEM,PA,CLARION
17068,"NEW BLOOMFIELD, PA",NEW BLOOMFIELD,PA,PERRY
15066,"NEW BRIGHTON, PA",NEW BRIGHTON,PA,BEAVER
17069,"NEW BUFFALO, PA",NEW BUFFALO,PA,PERRY
16101,"NEW CASTLE, PA",NEW CASTLE,PA,LAWRENCE
16102,"NEW CASTLE, PA",NEW CASTLE,PA,LAWRENCE
16103,"NEW CASTLE, PA",NEW CASTLE,PA,LAWRENCE
16105,"NEW CASTLE, PA",NEW CASTLE,PA,LAWRENCE
16107,"NEW CASTLE, PA",NEW CASTLE,PA,LAWRENCE
16108,"NEW CASTLE, PA",NEW CASTLE,PA,LAWRENCE
17856,"NEW COLUMBIA, PA",NEW COLUMBIA,PA,UNION
17070,"NEW CUMBERLAND, PA",NEW CUMBERLAND,PA,CUMBERLAND
15671,"NEW DERRY, PA",NEW DERRY,PA,WESTMORELAND
15067,"NEW EAGLE, PA",NEW EAGLE,PA,WASHINGTON
16664,"NEW ENTERPRISE, PA",NEW ENTERPRISE,PA,BEDFORD
15944,"NEW FLORENCE, PA",NEW FLORENCE,PA,WESTMORELAND
17349,"NEW FREEDOM, PA",NEW FREEDOM,PA,YORK
15352,"NEW FREEPORT, PA",NEW FREEPORT,PA,GREENE
16141,"NEW GALILEE, PA",NEW GALILEE,PA,BEAVER
15467,"NEW GENEVA, PA",NEW GENEVA,PA,FAYETTE
17557,"NEW HOLLAND, PA",NEW HOLLAND,PA,LANCASTER
18938,"NEW HOPE, PA",NEW HOPE,PA,BUCKS
15068,"NEW KENSINGTON, PA",NEW KENSINGTON,PA,WESTMORELAND
15069,"NEW KENSINGTON, PA",NEW KENSINGTON,PA,WESTMORELAND
17072,"NEW KINGSTOWN, PA",NEW KINGSTOWN,PA,CUMBERLAND
19360,"NEW LONDON, PA",NEW LONDON,PA,CHESTER
18834,"NEW MILFORD, PA",NEW MILFORD,PA,SUSQUEHANNA
16861,"NEW MILLPORT, PA",NEW MILLPORT,PA,CLEARFIELD
17350,"NEW OXFORD, PA",NEW OXFORD,PA,ADAMS
15554,"NEW PARIS, PA",NEW PARIS,PA,BEDFORD
17352,"NEW PARK, PA",NEW PARK,PA,YORK
17959,"NEW PHILADELPHIA, PA",NEW PHILADELPHIA,PA,SCHUYLKILL
17560,"NEW PROVIDENCE, PA",NEW PROVIDENCE,PA,LANCASTER
17960,"NEW RINGGOLD, PA",NEW RINGGOLD,PA,SCHUYLKILL
15468,"NEW SALEM, PA",NEW SALEM,PA,FAYETTE
15672,"NEW STANTON, PA",NEW STANTON,PA,WESTMORELAND
18066,"NEW TRIPOLI, PA",NEW TRIPOLI,PA,LEHIGH
16142,"NEW WILMINGTON, PA",NEW WILMINGTON,PA,LAWRENCE
16172,"NEW WILMINGTON, PA",NEW WILMINGTON,PA,LAWRENCE
17240,"NEWBURG, PA",NEWBURG,PA,CUMBERLAND
15466,"NEWELL, PA",NEWELL,PA,FAYETTE
18445,"NEWFOUNDLAND, PA",NEWFOUNDLAND,PA,WAYNE
17073,"NEWMANSTOWN, PA",NEWMANSTOWN,PA,LEBANON
17074,"NEWPORT, PA",NEWPORT,PA,PERRY
16665,"NEWRY, PA",NEWRY,PA,BLAIR
17075,"NEWTON HAMILTON, PA",NEWTON HAMILTON,PA,MIFFLIN
18940,"NEWTOWN, PA",NEWTOWN,PA,BUCKS
19073,"NEWTOWN SQUARE, PA",NEWTOWN SQUARE,PA,DELAWARE
17241,"NEWVILLE, PA",NEWVILLE,PA,CUMBERLAND
18446,"NICHOLSON, PA",NICHOLSON,PA,WYOMING
15762,"NICKTOWN, PA",NICKTOWN,PA,CAMBRIA
15469,"NORMALVILLE, PA",NORMALVILLE,PA,FAYETTE
19401,"NORRISTOWN, PA",NORRISTOWN,PA,MONTGOMERY
19403,"NORRISTOWN, PA",NORRISTOWN,PA,MONTGOMERY
19404,"NORRISTOWN, PA",NORRISTOWN,PA,MONTGOMERY
15673,"NORTH APOLLO, PA",NORTH APOLLO,PA,ARMSTRONG
17760,"NORTH BEND, PA",NORTH BEND,PA,CLINTON
16428,"NORTH EAST, PA",NORTH EAST,PA,ERIE
16430,"NORTH SPRINGFIELD, PA",NORTH SPRINGFIELD,PA,ERIE
15137,"NORTH VERSAILLES, PA",NORTH VERSAILLES,PA,ALLEGHENY
19454,"NORTH WALES, PA",NORTH WALES,PA,MONTGOMERY
16048,"NORTH WASHINGTON, PA",NORTH WASHINGTON,PA,BUTLER
18067,"NORTHAMPTON, PA",NORTHAMPTON,PA,NORTHAMPTON
15714,"NORTHERN CAMBRIA, PA",NORTHERN CAMBRIA,PA,CAMBRIA
15763,"NORTHPOINT, PA",NORTHPOINT,PA,INDIANA
17857,"NORTHUMBERLAND, PA",NORTHUMBERLAND,PA,NORTHUMBERLAND
15674,"NORVELT, PA",NORVELT,PA,WESTMORELAND
19074,"NORWOOD, PA",NORWOOD,PA,DELAWARE
19362,"NOTTINGHAM, PA",NOTTINGHAM,PA,CHESTER
18636,"NOXEN, PA",NOXEN,PA,WYOMING
16244,"NU MINE, PA",NU MINE,PA,ARMSTRONG
17858,"NUMIDIA, PA",NUMIDIA,PA,COLUMBIA
18241,"NUREMBERG, PA",NUREMBERG,PA,SCHUYLKILL
16245,"OAK RIDGE, PA",OAK RIDGE,PA,ARMSTRONG
15071,"OAKDALE, PA",OAKDALE,PA,ALLEGHENY
17076,"OAKLAND MILLS, PA",OAKLAND MILLS,PA,JUNIATA
15139,"OAKMONT, PA",OAKMONT,PA,ALLEGHENY
19456,"OAKS, PA",OAKS,PA,MONTGOMERY
15470,"OHIOPYLE, PA",OHIOPYLE,PA,FAYETTE
16301,"OIL CITY, PA",OIL CITY,PA,VENANGO
16863,"OLANTA, PA",OLANTA,PA,CLEARFIELD
18518,"OLD FORGE, PA",OLD FORGE,PA,LACKAWANNA
18068,"OLD ZIONSVILLE, PA",OLD ZIONSVILLE,PA,LEHIGH
19547,"OLEY, PA",OLEY,PA,BERKS
15764,"OLIVEBURG, PA",OLIVEBURG,PA,JEFFERSON
15472,"OLIVER, PA",OLIVER,PA,FAYETTE
18447,"OLYPHANT, PA",OLYPHANT,PA,LACKAWANNA
18448,"OLYPHANT, PA",OLYPHANT,PA,LACKAWANNA
17077,"ONO, PA",ONO,PA,LEBANON
17859,"ORANGEVILLE, PA",ORANGEVILLE,PA,COLUMBIA
17243,"ORBISONIA, PA",ORBISONIA,PA,HUNTINGDON
18069,"OREFIELD, PA",OREFIELD,PA,LEHIGH
19075,"ORELAND, PA",ORELAND,PA,MONTGOMERY
17244,"ORRSTOWN, PA",ORRSTOWN,PA,FRANKLIN
17353,"ORRTANNA, PA",ORRTANNA,PA,ADAMS
18449,"ORSON, PA",ORSON,PA,WAYNE
17961,"ORWIGSBURG, PA",ORWIGSBURG,PA,SCHUYLKILL
16942,"OSCEOLA, PA",OSCEOLA,PA,TIOGA
16666,"OSCEOLA MILLS, PA",OSCEOLA MILLS,PA,CLEARFIELD
16667,"OSTERBURG, PA",OSTERBURG,PA,BEDFORD
18942,"OTTSVILLE, PA",OTTSVILLE,PA,BUCKS
19363,"OXFORD, PA",OXFORD,PA,CHESTER
18070,"PALM, PA",PALM,PA,MONTGOMERY
18071,"PALMERTON, PA",PALMERTON,PA,CARBON
17078,"PALMYRA, PA",PALMYRA,PA,LEBANON
19301,"PAOLI, PA",PAOLI,PA,CHESTER
17562,"PARADISE, PA",PARADISE,PA,LANCASTER
16049,"PARKER, PA",PARKER,PA,ARMSTRONG
19457,"PARKER FORD, PA",PARKER FORD,PA,CHESTER
19365,"PARKESBURG, PA",PARKESBURG,PA,CHESTER
15945,"PARKHILL, PA",PARKHILL,PA,CAMBRIA
18244,"PARRYVILLE, PA",PARRYVILLE,PA,CARBON
16668,"PATTON, PA",PATTON,PA,CAMBRIA
18451,"PAUPACK, PA",PAUPACK,PA,PIKE
17860,"PAXINOS, PA",PAXINOS,PA,NORTHUMBERLAND
17861,"PAXTONVILLE, PA",PAXTONVILLE,PA,SNYDER
17563,"PEACH BOTTOM, PA",PEACH BOTTOM,PA,LANCASTER
17375,"PEACH GLEN, PA",PEACH GLEN,PA,ADAMS
18452,"PECKVILLE, PA",PECKVILLE,PA,LACKAWANNA
18072,"PEN ARGYL, PA",PEN ARGYL,PA,NORTHAMPTON
15849,"PENFIELD, PA",PENFIELD,PA,CLEARFIELD
15675,"PENN, PA",PENN,PA,WESTMORELAND
15765,"PENN RUN, PA",PENN RUN,PA,INDIANA
17862,"PENNS CREEK, PA",PENNS CREEK,PA,SNYDER
18943,"PENNS PARK, PA",PENNS PARK,PA,BUCKS
18073,"PENNSBURG, PA",PENNSBURG,PA,MONTGOMERY
16865,"PENNSYLVANIA FURNACE, PA",PENNSYLVANIA FURNACE,PA,CENTRE
17564,"PENRYN, PA",PENRYN,PA,LANCASTER
17565,"PEQUEA, PA",PEQUEA,PA,LANCASTER
18944,"PERKASIE, PA",PERKASIE,PA,BUCKS
18074,"PERKIOMENVILLE, PA",PERKIOMENVILLE,PA,MONTGOMERY
15473,"PERRYOPOLIS, PA",PERRYOPOLIS,PA,FAYETTE
16669,"PETERSBURG, PA",PETERSBURG,PA,HUNTINGDON
16050,"PETROLIA, PA",PETROLIA,PA,BUTLER
19113,"PHILADELPHIA, PA",PHILADELPHIA,PA,DELAWARE
19019,"PHILADELPHIA, PA",PHILADELPHIA,PA,PHILADELPHIA
19101,"PHILADELPHIA, PA",PHILADELPHIA,PA,PHILADELPHIA
19102,"PHILADELPHIA, PA",PHILADELPHIA,PA,PHILADELPHIA
19103,"PHILADELPHIA, PA",PHILADELPHIA,PA,PHILADELPHIA
19104,"PHILADELPHIA, PA",PHILADELPHIA,PA,PHILADELPHIA
19105,"PHILADELPHIA, PA",PHILADELPHIA,PA,PHILADELPHIA
19106,"PHILADELPHIA, PA",PHILADELPHIA,PA,PHILADELPHIA
19107,"PHILADELPHIA, PA",PHILADELPHIA,PA,PHILADELPHIA
19108,"PHILADELPHIA, PA",PHILADELPHIA,PA,PHILADELPHIA
19109,"PHILADELPHIA, PA",PHILADELPHIA,PA,PHILADELPHIA
19110,"PHILADELPHIA, PA",PHILADELPHIA,PA,PHILADELPHIA
19111,"PHILADELPHIA, PA",PHILADELPHIA,PA,PHILADELPHIA
19112,"PHILADELPHIA, PA",PHILADELPHIA,PA,PHILADELPHIA
19114,"PHILADELPHIA, PA",PHILADELPHIA,PA,PHILADELPHIA
19115,"PHILADELPHIA, PA",PHILADELPHIA,PA,PHILADELPHIA
19116,"PHILADELPHIA, PA",PHILADELPHIA,PA,PHILADELPHIA
19118,"PHILADELPHIA, PA",PHILADELPHIA,PA,PHILADELPHIA
19119,"PHILADELPHIA, PA",PHILADELPHIA,PA,PHILADELPHIA
19120,"PHILADELPHIA, PA",PHILADELPHIA,PA,PHILADELPHIA
19121,"PHILADELPHIA, PA",PHILADELPHIA,PA,PHILADELPHIA
19122,"PHILADELPHIA, PA",PHILADELPHIA,PA,PHILADELPHIA
19123,"PHILADELPHIA, PA",PHILADELPHIA,PA,PHILADELPHIA
19124,"PHILADELPHIA, PA",PHILADELPHIA,PA,PHILADELPHIA
19125,"PHILADELPHIA, PA",PHILADELPHIA,PA,PHILADELPHIA
19126,"PHILADELPHIA, PA",PHILADELPHIA,PA,PHILADELPHIA
19127,"PHILADELPHIA, PA",PHILADELPHIA,PA,PHILADELPHIA
19128,"PHILADELPHIA, PA",PHILADELPHIA,PA,PHILADELPHIA
19129,"PHILADELPHIA, PA",PHILADELPHIA,PA,PHILADELPHIA
19130,"PHILADELPHIA, PA",PHILADELPHIA,PA,PHILADELPHIA
19131,"PHILADELPHIA, PA",PHILADELPHIA,PA,PHILADELPHIA
19132,"PHILADELPHIA, PA",PHILADELPHIA,PA,PHILADELPHIA
19133,"PHILADELPHIA, PA",PHILADELPHIA,PA,PHILADELPHIA
19134,"PHILADELPHIA, PA",PHILADELPHIA,PA,PHILADELPHIA
19135,"PHILADELPHIA, PA",PHILADELPHIA,PA,PHILADELPHIA
19136,"PHILADELPHIA, PA",PHILADELPHIA,PA,PHILADELPHIA
19137,"PHILADELPHIA, PA",PHILADELPHIA,PA,PHILADELPHIA
19138,"PHILADELPHIA, PA",PHILADELPHIA,PA,PHILADELPHIA
19139,"PHILADELPHIA, PA",PHILADELPHIA,PA,PHILADELPHIA
19140,"PHILADELPHIA, PA",PHILADELPHIA,PA,PHILADELPHIA
19141,"PHILADELPHIA, PA",PHILADELPHIA,PA,PHILADELPHIA
19142,"PHILADELPHIA, PA",PHILADELPHIA,PA,PHILADELPHIA
19143,"PHILADELPHIA, PA",PHILADELPHIA,PA,PHILADELPHIA
19144,"PHILADELPHIA, PA",PHILADELPHIA,PA,PHILADELPHIA
19145,"PHILADELPHIA, PA",PHILADELPHIA,PA,PHILADELPHIA
19146,"PHILADELPHIA, PA",PHILADELPHIA,PA,PHILADELPHIA
19147,"PHILADELPHIA, PA",PHILADELPHIA,PA,PHILADELPHIA
19148,"PHILADELPHIA, PA",PHILADELPHIA,PA,PHILADELPHIA
19149,"PHILADELPHIA, PA",PHILADELPHIA,PA,PHILADELPHIA
19150,"PHILADELPHIA, PA",PHILADELPHIA,PA,PHILADELPHIA
19151,"PHILADELPHIA, PA",PHILADELPHIA,PA,PHILADELPHIA
19152,"PHILADELPHIA, PA",PHILADELPHIA,PA,PHILADELPHIA
19153,"PHILADELPHIA, PA",PHILADELPHIA,PA,PHILADELPHIA
19154,"PHILADELPHIA, PA",PHILADELPHIA,PA,PHILADELPHIA
19155,"PHILADELPHIA, PA",PHILADELPHIA,PA,PHILADELPHIA
19160,"PHILADELPHIA, PA",PHILADELPHIA,PA,PHILADELPHIA
19170,"PHILADELPHIA, PA",PHILADELPHIA,PA,PHILADELPHIA
19176,"PHILADELPHIA, PA",PHILADELPHIA,PA,PHILADELPHIA
19181,"PHILADELPHIA, PA",PHILADELPHIA,PA,PHILADELPHIA
19187,"PHILADELPHIA, PA",PHILADELPHIA,PA,PHILADELPHIA
19192,"PHILADELPHIA, PA",PHILADELPHIA,PA,PHILADELPHIA
19194,"PHILADELPHIA, PA",PHILADELPHIA,PA,PHILADELPHIA
19255,"PHILADELPHIA, PA",PHILADELPHIA,PA,PHILADELPHIA
16866,"PHILIPSBURG, PA",PHILIPSBURG,PA,CENTRE
19460,"PHOENIXVILLE, PA",PHOENIXVILLE,PA,CHESTER
17762,"PICTURE ROCKS, PA",PICTURE ROCKS,PA,LYCOMING
17080,"PILLOW, PA",PILLOW,PA,DAUPHIN
19548,"PINE FORGE, PA",PINE FORGE,PA,BERKS
17963,"PINE GROVE, PA",PINE GROVE,PA,SCHUYLKILL
16868,"PINE GROVE MILLS, PA",PINE GROVE MILLS,PA,CENTRE
18946,"PINEVILLE, PA",PINEVILLE,PA,BUCKS
18947,"PIPERSVILLE, PA",PIPERSVILLE,PA,BUCKS
15140,"PITCAIRN, PA",PITCAIRN,PA,ALLEGHENY
17964,"PITMAN, PA",PITMAN,PA,SCHUYLKILL
15201,"PITTSBURGH, PA",PITTSBURGH,PA,ALLEGHENY
15202,"PITTSBURGH, PA",PITTSBURGH,PA,ALLEGHENY
15203,"PITTSBURGH, PA",PITTSBURGH,PA,ALLEGHENY
15204,"PITTSBURGH, PA",PITTSBURGH,PA,ALLEGHENY
15205,"PITTSBURGH, PA",PITTSBURGH,PA,ALLEGHENY
15206,"PITTSBURGH, PA",PITTSBURGH,PA,ALLEGHENY
15207,"PITTSBURGH, PA",PITTSBURGH,PA,ALLEGHENY
15208,"PITTSBURGH, PA",PITTSBURGH,PA,ALLEGHENY
15209,"PITTSBURGH, PA",PITTSBURGH,PA,ALLEGHENY
15210,"PITTSBURGH, PA",PITTSBURGH,PA,ALLEGHENY
15211,"PITTSBURGH, PA",PITTSBURGH,PA,ALLEGHENY
15212,"PITTSBURGH, PA",PITTSBURGH,PA,ALLEGHENY
15213,"PITTSBURGH, PA",PITTSBURGH,PA,ALLEGHENY
15214,"PITTSBURGH, PA",PITTSBURGH,PA,ALLEGHENY
15215,"PITTSBURGH, PA",PITTSBURGH,PA,ALLEGHENY
15216,"PITTSBURGH, PA",PITTSBURGH,PA,ALLEGHENY
15217,"PITTSBURGH, PA",PITTSBURGH,PA,ALLEGHENY
15218,"PITTSBURGH, PA",PITTSBURGH,PA,ALLEGHENY
15219,"PITTSBURGH, PA",PITTSBURGH,PA,ALLEGHENY
15220,"PITTSBURGH, PA",PITTSBURGH,PA,ALLEGHENY
15221,"PITTSBURGH, PA",PITTSBURGH,PA,ALLEGHENY
15222,"PITTSBURGH, PA",PITTSBURGH,PA,ALLEGHENY
15223,"PITTSBURGH, PA",PITTSBURGH,PA,ALLEGHENY
15224,"PITTSBURGH, PA",PITTSBURGH,PA,ALLEGHENY
15225,"PITTSBURGH, PA",PITTSBURGH,PA,ALLEGHENY
15226,"PITTSBURGH, PA",PITTSBURGH,PA,ALLEGHENY
15227,"PITTSBURGH, PA",PITTSBURGH,PA,ALLEGHENY
15228,"PITTSBURGH, PA",PITTSBURGH,PA,ALLEGHENY
15229,"PITTSBURGH, PA",PITTSBURGH,PA,ALLEGHENY
15230,"PITTSBURGH, PA",PITTSBURGH,PA,ALLEGHENY
15231,"PITTSBURGH, PA",PITTSBURGH,PA,ALLEGHENY
15232,"PITTSBURGH, PA",PITTSBURGH,PA,ALLEGHENY
15233,"PITTSBURGH, PA",PITTSBURGH,PA,ALLEGHENY
15234,"PITTSBURGH, PA",PITTSBURGH,PA,ALLEGHENY
15235,"PITTSBURGH, PA",PITTSBURGH,PA,ALLEGHENY
15236,"PITTSBURGH, PA",PITTSBURGH,PA,ALLEGHENY
15237,"PITTSBURGH, PA",PITTSBURGH,PA,ALLEGHENY
15238,"PITTSBURGH, PA",PITTSBURGH,PA,ALLEGHENY
15239,"PITTSBURGH, PA",PITTSBURGH,PA,ALLEGHENY
15240,"PITTSBURGH, PA",PITTSBURGH,PA,ALLEGHENY
15241,"PITTSBURGH, PA",PITTSBURGH,PA,ALLEGHENY
15242,"PITTSBURGH, PA",PITTSBURGH,PA,ALLEGHENY
15243,"PITTSBURGH, PA",PITTSBURGH,PA,ALLEGHENY
15244,"PITTSBURGH, PA",PITTSBURGH,PA,ALLEGHENY
15258,"PITTSBURGH, PA",PITTSBURGH,PA,ALLEGHENY
15259,"PITTSBURGH, PA",PITTSBURGH,PA,ALLEGHENY
15260,"PITTSBURGH, PA",PITTSBURGH,PA,ALLEGHENY
15261,"PITTSBURGH, PA",PITTSBURGH,PA,ALLEGHENY
15262,"PITTSBURGH, PA",PITTSBURGH,PA,ALLEGHENY
15272,"PITTSBURGH, PA",PITTSBURGH,PA,ALLEGHENY
15275,"PITTSBURGH, PA",PITTSBURGH,PA,ALLEGHENY
15276,"PITTSBURGH, PA",PITTSBURGH,PA,ALLEGHENY
15278,"PITTSBURGH, PA",PITTSBURGH,PA,ALLEGHENY
15282,"PITTSBURGH, PA",PITTSBURGH,PA,ALLEGHENY
15289,"PITTSBURGH, PA",PITTSBURGH,PA,ALLEGHENY
15290,"PITTSBURGH, PA",PITTSBURGH,PA,ALLEGHENY
16340,"PITTSFIELD, PA",PITTSFIELD,PA,WARREN
18640,"PITTSTON, PA",PITTSTON,PA,LUZERNE
18641,"PITTSTON, PA",PITTSTON,PA,LUZERNE
18643,"PITTSTON, PA",PITTSTON,PA,LUZERNE
17081,"PLAINFIELD, PA",PLAINFIELD,PA,CUMBERLAND
17246,"PLEASANT HALL, PA",PLEASANT HALL,PA,FRANKLIN
18453,"PLEASANT MOUNT, PA",PLEASANT MOUNT,PA,WAYNE
15676,"PLEASANT UNITY, PA",PLEASANT UNITY,PA,WESTMORELAND
16341,"PLEASANTVILLE, PA",PLEASANTVILLE,PA,VENANGO
18949,"PLUMSTEADVILLE, PA",PLUMSTEADVILLE,PA,BUCKS
16246,"PLUMVILLE, PA",PLUMVILLE,PA,INDIANA
18651,"PLYMOUTH, PA",PLYMOUTH,PA,LUZERNE
19462,"PLYMOUTH MEETING, PA",PLYMOUTH MEETING,PA,MONTGOMERY
18347,"POCONO LAKE, PA",POCONO LAKE,PA,MONROE
18348,"POCONO LAKE PRESERVE, PA",POCONO LAKE PRESERVE,PA,MONROE
18349,"POCONO MANOR, PA",POCONO MANOR,PA,MONROE
18350,"POCONO PINES, PA",POCONO PINES,PA,MONROE
18346,"POCONO SUMMIT, PA",POCONO SUMMIT,PA,MONROE
19366,"POCOPSON, PA",POCOPSON,PA,CHESTER
15474,"POINT MARION, PA",POINT MARION,PA,FAYETTE
18950,"POINT PLEASANT, PA",POINT PLEASANT,PA,BUCKS
16342,"POLK, PA",POLK,PA,VENANGO
19367,"POMEROY, PA",POMEROY,PA,CHESTER
16743,"PORT ALLEGANY, PA",PORT ALLEGANY,PA,MCKEAN
17965,"PORT CARBON, PA",PORT CARBON,PA,SCHUYLKILL
19549,"PORT CLINTON, PA",PORT CLINTON,PA,SCHUYLKILL
16870,"PORT MATILDA, PA",PORT MATILDA,PA,CENTRE
17082,"PORT ROYAL, PA",PORT ROYAL,PA,JUNIATA
17864,"PORT TREVORTON, PA",PORT TREVORTON,PA,SNYDER
15946,"PORTAGE, PA",PORTAGE,PA,CAMBRIA
16051,"PORTERSVILLE, PA",PORTERSVILLE,PA,BUTLER
18351,"PORTLAND, PA",PORTLAND,PA,NORTHAMPTON
17865,"POTTS GROVE, PA",POTTS GROVE,PA,NORTHUMBERLAND
19465,"POTTSTOWN, PA",POTTSTOWN,PA,CHESTER
19464,"POTTSTOWN, PA",POTTSTOWN,PA,MONTGOMERY
17901,"POTTSVILLE, PA",POTTSVILLE,PA,SCHUYLKILL
18454,"POYNTELLE, PA",POYNTELLE,PA,WAYNE
15142,"PRESTO, PA",PRESTO,PA,ALLEGHENY
18455,"PRESTON PARK, PA",PRESTON PARK,PA,WAYNE
15072,"PRICEDALE, PA",PRICEDALE,PA,WESTMORELAND
18456,"PROMPTON, PA",PROMPTON,PA,WAYNE
16052,"PROSPECT, PA",PROSPECT,PA,BUTLER
19076,"PROSPECT PARK, PA",PROSPECT PARK,PA,DELAWARE
15329,"PROSPERITY, PA",PROSPERITY,PA,WASHINGTON
16143,"PULASKI, PA",PULASKI,PA,LAWRENCE
15767,"PUNXSUTAWNEY, PA",PUNXSUTAWNEY,PA,JEFFERSON
18245,"QUAKAKE, PA",QUAKAKE,PA,SCHUYLKILL
18951,"QUAKERTOWN, PA",QUAKERTOWN,PA,BUCKS
17566,"QUARRYVILLE, PA",QUARRYVILLE,PA,LANCASTER
17083,"QUENTIN, PA",QUENTIN,PA,LEBANON
17247,"QUINCY, PA",QUINCY,PA,FRANKLIN
17355,"RAILROAD, PA",RAILROAD,PA,YORK
17763,"RALSTON, PA",RALSTON,PA,LYCOMING
16671,"RAMEY, PA",RAMEY,PA,CLEARFIELD
19601,"READING, PA",READING,PA,BERKS
19602,"READING, PA",READING,PA,BERKS
19603,"READING, PA",READING,PA,BERKS
19604,"READING, PA",READING,PA,BERKS
19605,"READING, PA",READING,PA,BERKS
19606,"READING, PA",READING,PA,BERKS
19607,"READING, PA",READING,PA,BERKS
19608,"READING, PA",READING,PA,BERKS
19609,"READING, PA",READING,PA,BERKS
19610,"READING, PA",READING,PA,BERKS
19611,"READING, PA",READING,PA,BERKS
19612,"READING, PA",READING,PA,BERKS
17567,"REAMSTOWN, PA",REAMSTOWN,PA,LANCASTER
16872,"REBERSBURG, PA",REBERSBURG,PA,CENTRE
17867,"REBUCK, PA",REBUCK,PA,NORTHUMBERLAND
15677,"RECTOR, PA",RECTOR,PA,WESTMORELAND
18076,"RED HILL, PA",RED HILL,PA,MONTGOMERY
17356,"RED LION, PA",RED LION,PA,YORK
18352,"REEDERS, PA",REEDERS,PA,MONROE
17084,"REEDSVILLE, PA",REEDSVILLE,PA,MIFFLIN
17568,"REFTON, PA",REFTON,PA,LANCASTER
19550,"REHRERSBURG, PA",REHRERSBURG,PA,BERKS
17569,"REINHOLDS, PA",REINHOLDS,PA,LANCASTER
16053,"RENFREW, PA",RENFREW,PA,BUTLER
16343,"RENO, PA",RENO,PA,VENANGO
17764,"RENOVO, PA",RENOVO,PA,CLINTON
15475,"REPUBLIC, PA",REPUBLIC,PA,FAYETTE
18953,"REVERE, PA",REVERE,PA,BUCKS
15948,"REVLOC, PA",REVLOC,PA,CAMBRIA
16744,"REW, PA",REW,PA,MCKEAN
17085,"REXMONT, PA",REXMONT,PA,LEBANON
15851,"REYNOLDSVILLE, PA",REYNOLDSVILLE,PA,JEFFERSON
17570,"RHEEMS, PA",RHEEMS,PA,LANCASTER
15357,"RICES LANDING, PA",RICES LANDING,PA,GREENE
18954,"RICHBORO, PA",RICHBORO,PA,BUCKS
15358,"RICHEYVILLE, PA",RICHEYVILLE,PA,WASHINGTON
17086,"RICHFIELD, PA",RICHFIELD,PA,JUNIATA
17087,"RICHLAND, PA",RICHLAND,PA,LEBANON
18955,"RICHLANDTOWN, PA",RICHLANDTOWN,PA,BUCKS
16672,"RIDDLESBURG, PA",RIDDLESBURG,PA,BEDFORD
15853,"RIDGWAY, PA",RIDGWAY,PA,ELK
19078,"RIDLEY PARK, PA",RIDLEY PARK,PA,DELAWARE
18077,"RIEGELSVILLE, PA",RIEGELSVILLE,PA,BUCKS
15678,"RILLTON, PA",RILLTON,PA,WESTMORELAND
16248,"RIMERSBURG, PA",RIMERSBURG,PA,CLARION
15770,"RINGGOLD, PA",RINGGOLD,PA,JEFFERSON
17967,"RINGTOWN, PA",RINGTOWN,PA,SCHUYLKILL
17868,"RIVERSIDE, PA",RIVERSIDE,PA,NORTHUMBERLAND
16745,"RIXFORD, PA",RIXFORD,PA,MCKEAN
17765,"ROARING BRANCH, PA",ROARING BRANCH,PA,TIOGA
16673,"ROARING SPRING, PA",ROARING SPRING,PA,BLAIR
16674,"ROBERTSDALE, PA",ROBERTSDALE,PA,HUNTINGDON
19551,"ROBESONIA, PA",ROBESONIA,PA,BERKS
15949,"ROBINSON, PA",ROBINSON,PA,INDIANA
15074,"ROCHESTER, PA",ROCHESTER,PA,BEAVER
15771,"ROCHESTER MILLS, PA",ROCHESTER MILLS,PA,INDIANA
18246,"ROCK GLEN, PA",ROCK GLEN,PA,LUZERNE
17249,"ROCKHILL FURNACE, PA",ROCKHILL FURNACE,PA,HUNTINGDON
15856,"ROCKTON, PA",ROCKTON,PA,CLEARFIELD
15557,"ROCKWOOD, PA",ROCKWOOD,PA,SOMERSET
15359,"ROGERSVILLE, PA",ROGERSVILLE,PA,GREENE
18837,"ROME, PA",ROME,PA,BRADFORD
17572,"RONKS, PA",RONKS,PA,LANCASTER
15477,"ROSCOE, PA",ROSCOE,PA,WASHINGTON
15772,"ROSSITER, PA",ROSSITER,PA,INDIANA
17358,"ROSSVILLE, PA",ROSSVILLE,PA,YORK
16746,"ROULETTE, PA",ROULETTE,PA,POTTER
16344,"ROUSEVILLE, PA",ROUSEVILLE,PA,VENANGO
17250,"ROUZERVILLE, PA",ROUZERVILLE,PA,FRANKLIN
18457,"ROWLAND, PA",ROWLAND,PA,PIKE
17251,"ROXBURY, PA",ROXBURY,PA,FRANKLIN
19468,"ROYERSFORD, PA",ROYERSFORD,PA,MONTGOMERY
15679,"RUFFS DALE, PA",RUFFS DALE,PA,WESTMORELAND
15075,"RURAL RIDGE, PA",RURAL RIDGE,PA,ALLEGHENY
16249,"RURAL VALLEY, PA",RURAL VALLEY,PA,ARMSTRONG
18956,"RUSHLAND, PA",RUSHLAND,PA,BUCKS
16345,"RUSSELL, PA",RUSSELL,PA,WARREN
15076,"RUSSELLTON, PA",RUSSELLTON,PA,ALLEGHENY
16943,"SABINSVILLE, PA",SABINSVILLE,PA,TIOGA
17968,"SACRAMENTO, PA",SACRAMENTO,PA,SCHUYLKILL
19369,"SADSBURYVILLE, PA",SADSBURYVILLE,PA,CHESTER
16433,"SAEGERTOWN, PA",SAEGERTOWN,PA,CRAWFORD
16250,"SAGAMORE, PA",SAGAMORE,PA,ARMSTRONG
15773,"SAINT BENEDICT, PA",SAINT BENEDICT,PA,CAMBRIA
16675,"SAINT BONIFACE, PA",SAINT BONIFACE,PA,CAMBRIA
17970,"SAINT CLAIR, PA",SAINT CLAIR,PA,SCHUYLKILL
18247,"SAINT JOHNS, PA",SAINT JOHNS,PA,LUZERNE
15857,"SAINT MARYS, PA",SAINT MARYS,PA,ELK
15951,"SAINT MICHAEL, PA",SAINT MICHAEL,PA,CAMBRIA
19470,"SAINT PETERS, PA",SAINT PETERS,PA,CHESTER
16054,"SAINT PETERSBURG, PA",SAINT PETERSBURG,PA,CLARION
17252,"SAINT THOMAS, PA",SAINT THOMAS,PA,FRANKLIN
18957,"SALFORD, PA",SALFORD,PA,MONTGOMERY
18958,"SALFORDVILLE, PA",SALFORDVILLE,PA,MONTGOMERY
15680,"SALINA, PA",SALINA,PA,WESTMORELAND
15558,"SALISBURY, PA",SALISBURY,PA,SOMERSET
15952,"SALIX, PA",SALIX,PA,CAMBRIA
17253,"SALTILLO, PA",SALTILLO,PA,HUNTINGDON
15681,"SALTSBURG, PA",SALTSBURG,PA,INDIANA
16145,"SANDY LAKE, PA",SANDY LAKE,PA,MERCER
16677,"SANDY RIDGE, PA",SANDY RIDGE,PA,CENTRE
16055,"SARVER, PA",SARVER,PA,BUTLER
19472,"SASSAMANSVILLE, PA",SASSAMANSVILLE,PA,MONTGOMERY
16056,"SAXONBURG, PA",SAXONBURG,PA,BUTLER
16678,"SAXTON, PA",SAXTON,PA,BEDFORD
18353,"SAYLORSBURG, PA",SAYLORSBURG,PA,MONROE
18840,"SAYRE, PA",SAYRE,PA,BRADFORD
15360,"SCENERY HILL, PA",SCENERY HILL,PA,WASHINGTON
17088,"SCHAEFFERSTOWN, PA",SCHAEFFERSTOWN,PA,LEBANON
15559,"SCHELLSBURG, PA",SCHELLSBURG,PA,BEDFORD
15682,"SCHENLEY, PA",SCHENLEY,PA,ARMSTRONG
18078,"SCHNECKSVILLE, PA",SCHNECKSVILLE,PA,LEHIGH
17972,"SCHUYLKILL HAVEN, PA",SCHUYLKILL HAVEN,PA,SCHUYLKILL
19473,"SCHWENKSVILLE, PA",SCHWENKSVILLE,PA,MONTGOMERY
18354,"SCIOTA, PA",SCIOTA,PA,MONROE
17254,"SCOTLAND, PA",SCOTLAND,PA,FRANKLIN
18355,"SCOTRUN, PA",SCOTRUN,PA,MONROE
15683,"SCOTTDALE, PA",SCOTTDALE,PA,WESTMORELAND
18501,"SCRANTON, PA",SCRANTON,PA,LACKAWANNA
18502,"SCRANTON, PA",SCRANTON,PA,LACKAWANNA
18503,"SCRANTON, PA",SCRANTON,PA,LACKAWANNA
18504,"SCRANTON, PA",SCRANTON,PA,LACKAWANNA
18505,"SCRANTON, PA",SCRANTON,PA,LACKAWANNA
18508,"SCRANTON, PA",SCRANTON,PA,LACKAWANNA
18509,"SCRANTON, PA",SCRANTON,PA,LACKAWANNA
18510,"SCRANTON, PA",SCRANTON,PA,LACKAWANNA
18512,"SCRANTON, PA",SCRANTON,PA,LACKAWANNA
18515,"SCRANTON, PA",SCRANTON,PA,LACKAWANNA
18519,"SCRANTON, PA",SCRANTON,PA,LACKAWANNA
17870,"SELINSGROVE, PA",SELINSGROVE,PA,SNYDER
18960,"SELLERSVILLE, PA",SELLERSVILLE,PA,BUCKS
17974,"SELTZER, PA",SELTZER,PA,SCHUYLKILL
16253,"SEMINOLE, PA",SEMINOLE,PA,ARMSTRONG
16346,"SENECA, PA",SENECA,PA,VENANGO
17360,"SEVEN VALLEYS, PA",SEVEN VALLEYS,PA,YORK
15954,"SEWARD, PA",SEWARD,PA,WESTMORELAND
15143,"SEWICKLEY, PA",SEWICKLEY,PA,ALLEGHENY
17255,"SHADE GAP, PA",SHADE GAP,PA,HUNTINGDON
17256,"SHADY GROVE, PA",SHADY GROVE,PA,FRANKLIN
17872,"SHAMOKIN, PA",SHAMOKIN,PA,NORTHUMBERLAND
17876,"SHAMOKIN DAM, PA",SHAMOKIN DAM,PA,SNYDER
15560,"SHANKSVILLE, PA",SHANKSVILLE,PA,SOMERSET
16146,"SHARON, PA",SHARON,PA,MERCER
19079,"SHARON HILL, PA",SHARON HILL,PA,DELAWARE
16150,"SHARPSVILLE, PA",SHARPSVILLE,PA,MERCER
19554,"SHARTLESVILLE, PA",SHARTLESVILLE,PA,BERKS
18708,"SHAVERTOWN, PA",SHAVERTOWN,PA,LUZERNE
18654,"SHAWANESE, PA",SHAWANESE,PA,LUZERNE
18356,"SHAWNEE ON DELAWARE, PA",SHAWNEE ON DELAWARE,PA,MONROE
16873,"SHAWVILLE, PA",SHAWVILLE,PA,CLEARFIELD
16151,"SHEAKLEYVILLE, PA",SHEAKLEYVILLE,PA,MERCER
16347,"SHEFFIELD, PA",SHEFFIELD,PA,WARREN
15774,"SHELOCTA, PA",SHELOCTA,PA,INDIANA
17976,"SHENANDOAH, PA",SHENANDOAH,PA,SCHUYLKILL
18248,"SHEPPTON, PA",SHEPPTON,PA,SCHUYLKILL
17090,"SHERMANS DALE, PA",SHERMANS DALE,PA,PERRY
18655,"SHICKSHINNY, PA",SHICKSHINNY,PA,LUZERNE
16748,"SHINGLEHOUSE, PA",SHINGLEHOUSE,PA,POTTER
17257,"SHIPPENSBURG, PA",SHIPPENSBURG,PA,CUMBERLAND
16254,"SHIPPENVILLE, PA",SHIPPENVILLE,PA,CLARION
15077,"SHIPPINGPORT, PA",SHIPPINGPORT,PA,BEAVER
17260,"SHIRLEYSBURG, PA",SHIRLEYSBURG,PA,HUNTINGDON
19555,"SHOEMAKERSVILLE, PA",SHOEMAKERSVILLE,PA,BERKS
18458,"SHOHOLA, PA",SHOHOLA,PA,PIKE
17361,"SHREWSBURY, PA",SHREWSBURY,PA,YORK
17768,"SHUNK, PA",SHUNK,PA,SULLIVAN
15955,"SIDMAN, PA",SIDMAN,PA,CAMBRIA
15860,"SIGEL, PA",SIGEL,PA,JEFFERSON
17575,"SILVER SPRING, PA",SILVER SPRING,PA,LANCASTER
18962,"SILVERDALE, PA",SILVERDALE,PA,BUCKS
15861,"SINNAMAHONING, PA",SINNAMAHONING,PA,CAMERON
15561,"SIPESVILLE, PA",SIPESVILLE,PA,SOMERSET
16679,"SIX MILE RUN, PA",SIX MILE RUN,PA,BEDFORD
19474,"SKIPPACK, PA",SKIPPACK,PA,MONTGOMERY
18357,"SKYTOP, PA",SKYTOP,PA,MONROE
17769,"SLATE RUN, PA",SLATE RUN,PA,LYCOMING
18079,"SLATEDALE, PA",SLATEDALE,PA,LEHIGH
18080,"SLATINGTON, PA",SLATINGTON,PA,LEHIGH
15684,"SLICKVILLE, PA",SLICKVILLE,PA,WESTMORELAND
16255,"SLIGO, PA",SLIGO,PA,CLARION
16057,"SLIPPERY ROCK, PA",SLIPPERY ROCK,PA,BUTLER
15078,"SLOVAN, PA",SLOVAN,PA,WASHINGTON
16749,"SMETHPORT, PA",SMETHPORT,PA,MCKEAN
16256,"SMICKSBURG, PA",SMICKSBURG,PA,INDIANA
15478,"SMITHFIELD, PA",SMITHFIELD,PA,FAYETTE
16680,"SMITHMILL, PA",SMITHMILL,PA,CLEARFIELD
15479,"SMITHTON, PA",SMITHTON,PA,WESTMORELAND
15480,"SMOCK, PA",SMOCK,PA,FAYETTE
16681,"SMOKERUN, PA",SMOKERUN,PA,CLEARFIELD
17576,"SMOKETOWN, PA",SMOKETOWN,PA,LANCASTER
16874,"SNOW SHOE, PA",SNOW SHOE,PA,CENTRE
17877,"SNYDERTOWN, PA",SNYDERTOWN,PA,NORTHUMBERLAND
18963,"SOLEBURY, PA",SOLEBURY,PA,BUCKS
15501,"SOMERSET, PA",SOMERSET,PA,SOMERSET
18964,"SOUDERTON, PA",SOUDERTON,PA,MONTGOMERY
18459,"SOUTH CANAAN, PA",SOUTH CANAAN,PA,WAYNE
15956,"SOUTH FORK, PA",SOUTH FORK,PA,CAMBRIA
18842,"SOUTH GIBSON, PA",SOUTH GIBSON,PA,SUSQUEHANNA
15081,"SOUTH HEIGHTS, PA",SOUTH HEIGHTS,PA,BEAVER
18843,"SOUTH MONTROSE, PA",SOUTH MONTROSE,PA,SUSQUEHANNA
17261,"SOUTH MOUNTAIN, PA",SOUTH MOUNTAIN,PA,FRANKLIN
15129,"SOUTH PARK, PA",SOUTH PARK,PA,ALLEGHENY
18460,"SOUTH STERLING, PA",SOUTH STERLING,PA,WAYNE
18966,"SOUTHAMPTON, PA",SOUTHAMPTON,PA,BUCKS
19399,"SOUTHEASTERN, PA",SOUTHEASTERN,PA,CHESTER
15685,"SOUTHWEST, PA",SOUTHWEST,PA,WESTMORELAND
15775,"SPANGLER, PA",SPANGLER,PA,CAMBRIA
16434,"SPARTANSBURG, PA",SPARTANSBURG,PA,CRAWFORD
18968,"SPINNERSTOWN, PA",SPINNERSTOWN,PA,BUCKS
15362,"SPRAGGS, PA",SPRAGGS,PA,GREENE
15776,"SPRANKLE MILLS, PA",SPRANKLE MILLS,PA,JEFFERSON
15686,"SPRING CHURCH, PA",SPRING CHURCH,PA,ARMSTRONG
19475,"SPRING CITY, PA",SPRING CITY,PA,CHESTER
16436,"SPRING CREEK, PA",SPRING CREEK,PA,WARREN
17978,"SPRING GLEN, PA",SPRING GLEN,PA,SCHUYLKILL
17362,"SPRING GROVE, PA",SPRING GROVE,PA,YORK
19477,"SPRING HOUSE, PA",SPRING HOUSE,PA,MONTGOMERY
16875,"SPRING MILLS, PA",SPRING MILLS,PA,CENTRE
19478,"SPRING MOUNT, PA",SPRING MOUNT,PA,MONTGOMERY
17262,"SPRING RUN, PA",SPRING RUN,PA,FRANKLIN
16435,"SPRINGBORO, PA",SPRINGBORO,PA,CRAWFORD
15144,"SPRINGDALE, PA",SPRINGDALE,PA,ALLEGHENY
19064,"SPRINGFIELD, PA",SPRINGFIELD,PA,DELAWARE
15562,"SPRINGS, PA",SPRINGS,PA,SOMERSET
18081,"SPRINGTOWN, PA",SPRINGTOWN,PA,BUCKS
18844,"SPRINGVILLE, PA",SPRINGVILLE,PA,SUSQUEHANNA
16683,"SPRUCE CREEK, PA",SPRUCE CREEK,PA,HUNTINGDON
15687,"STAHLSTOWN, PA",STAHLSTOWN,PA,WESTMORELAND
15482,"STAR JUNCTION, PA",STAR JUNCTION,PA,FAYETTE
15777,"STARFORD, PA",STARFORD,PA,INDIANA
18461,"STARLIGHT, PA",STARLIGHT,PA,WAYNE
18462,"STARRUCCA, PA",STARRUCCA,PA,WAYNE
16801,"STATE COLLEGE, PA",STATE COLLEGE,PA,CENTRE
16803,"STATE COLLEGE, PA",STATE COLLEGE,PA,CENTRE
16804,"STATE COLLEGE, PA",STATE COLLEGE,PA,CENTRE
17263,"STATE LINE, PA",STATE LINE,PA,FRANKLIN
18463,"STERLING, PA",STERLING,PA,WAYNE
17578,"STEVENS, PA",STEVENS,PA,LANCASTER
18845,"STEVENSVILLE, PA",STEVENSVILLE,PA,BRADFORD
17363,"STEWARTSTOWN, PA",STEWARTSTOWN,PA,YORK
17878,"STILLWATER, PA",STILLWATER,PA,COLUMBIA
15483,"STOCKDALE, PA",STOCKDALE,PA,WASHINGTON
18083,"STOCKERTOWN, PA",STOCKERTOWN,PA,NORTHAMPTON
16153,"STONEBORO, PA",STONEBORO,PA,MERCER
15563,"STOYSTOWN, PA",STOYSTOWN,PA,SOMERSET
15363,"STRABANE, PA",STRABANE,PA,WASHINGTON
17579,"STRASBURG, PA",STRASBURG,PA,LANCASTER
16258,"STRATTANVILLE, PA",STRATTANVILLE,PA,CLARION
19559,"STRAUSSTOWN, PA",STRAUSSTOWN,PA,BERKS
15957,"STRONGSTOWN, PA",STRONGSTOWN,PA,INDIANA
18360,"STROUDSBURG, PA",STROUDSBURG,PA,MONROE
15863,"STUMP CREEK, PA",STUMP CREEK,PA,JEFFERSON
15082,"STURGEON, PA",STURGEON,PA,ALLEGHENY
16350,"SUGAR GROVE, PA",SUGAR GROVE,PA,WARREN
18846,"SUGAR RUN, PA",SUGAR RUN,PA,BRADFORD
18249,"SUGARLOAF, PA",SUGARLOAF,PA,LUZERNE
17093,"SUMMERDALE, PA",SUMMERDALE,PA,CUMBERLAND
15958,"SUMMERHILL, PA",SUMMERHILL,PA,CAMBRIA
15864,"SUMMERVILLE, PA",SUMMERVILLE,PA,JEFFERSON
18250,"SUMMIT HILL, PA",SUMMIT HILL,PA,CARBON
17979,"SUMMIT STATION, PA",SUMMIT STATION,PA,SCHUYLKILL
18084,"SUMNEYTOWN, PA",SUMNEYTOWN,PA,MONTGOMERY
17801,"SUNBURY, PA",SUNBURY,PA,NORTHUMBERLAND
18847,"SUSQUEHANNA, PA",SUSQUEHANNA,PA,SUSQUEHANNA
15083,"SUTERSVILLE, PA",SUTERSVILLE,PA,WESTMORELAND
19081,"SWARTHMORE, PA",SWARTHMORE,PA,DELAWARE
18656,"SWEET VALLEY, PA",SWEET VALLEY,PA,LUZERNE
17880,"SWENGEL, PA",SWENGEL,PA,UNION
18370,"SWIFTWATER, PA",SWIFTWATER,PA,MONROE
18251,"SYBERTSVILLE, PA",SYBERTSVILLE,PA,LUZERNE
15364,"SYCAMORE, PA",SYCAMORE,PA,GREENE
15865,"SYKESVILLE, PA",SYKESVILLE,PA,JEFFERSON
16945,"SYLVANIA, PA",SYLVANIA,PA,BRADFORD
18464,"TAFTON, PA",TAFTON,PA,PIKE
17580,"TALMAGE, PA",TALMAGE,PA,LANCASTER
18252,"TAMAQUA, PA",TAMAQUA,PA,SCHUYLKILL
18371,"TAMIMENT, PA",TAMIMENT,PA,PIKE
18372,"TANNERSVILLE, PA",TANNERSVILLE,PA,MONROE
15084,"TARENTUM, PA",TARENTUM,PA,ALLEGHENY
15688,"TARRS, PA",TARRS,PA,WESTMORELAND
18085,"TATAMY, PA",TATAMY,PA,NORTHAMPTON
18517,"TAYLOR, PA",TAYLOR,PA,LACKAWANNA
15365,"TAYLORSTOWN, PA",TAYLORSTOWN,PA,WASHINGTON
18969,"TELFORD, PA",TELFORD,PA,MONTGOMERY
19560,"TEMPLE, PA",TEMPLE,PA,BERKS
16259,"TEMPLETON, PA",TEMPLETON,PA,ARMSTRONG
17581,"TERRE HILL, PA",TERRE HILL,PA,LANCASTER
17364,"THOMASVILLE, PA",THOMASVILLE,PA,YORK
18465,"THOMPSON, PA",THOMPSON,PA,SUSQUEHANNA
17094,"THOMPSONTOWN, PA",THOMPSONTOWN,PA,JUNIATA
19372,"THORNDALE, PA",THORNDALE,PA,CHESTER
19373,"THORNTON, PA",THORNTON,PA,DELAWARE
17264,"THREE SPRINGS, PA",THREE SPRINGS,PA,HUNTINGDON
16351,"TIDIOUTE, PA",TIDIOUTE,PA,WARREN
16946,"TIOGA, PA",TIOGA,PA,TIOGA
16352,"TIONA, PA",TIONA,PA,WARREN
16353,"TIONESTA, PA",TIONESTA,PA,FOREST
16684,"TIPTON, PA",TIPTON,PA,BLAIR
15959,"TIRE HILL, PA",TIRE HILL,PA,SOMERSET
16354,"TITUSVILLE, PA",TITUSVILLE,PA,CRAWFORD
18466,"TOBYHANNA, PA",TOBYHANNA,PA,MONROE
16685,"TODD, PA",TODD,PA,HUNTINGDON
19562,"TOPTON, PA",TOPTON,PA,BERKS
15779,"TORRANCE, PA",TORRANCE,PA,WESTMORELAND
19374,"TOUGHKENAMON, PA",TOUGHKENAMON,PA,CHESTER
18848,"TOWANDA, PA",TOWANDA,PA,BRADFORD
17980,"TOWER CITY, PA",TOWER CITY,PA,SCHUYLKILL
16360,"TOWNVILLE, PA",TOWNVILLE,PA,CRAWFORD
15085,"TRAFFORD, PA",TRAFFORD,PA,WESTMORELAND
16154,"TRANSFER, PA",TRANSFER,PA,MERCER
18086,"TREICHLERS, PA",TREICHLERS,PA,NORTHAMPTON
17981,"TREMONT, PA",TREMONT,PA,SCHUYLKILL
18254,"TRESCKOW, PA",TRESCKOW,PA,CARBON
17881,"TREVORTON, PA",TREVORTON,PA,NORTHUMBERLAND
18087,"TREXLERTOWN, PA",TREXLERTOWN,PA,LEHIGH
17771,"TROUT RUN, PA",TROUT RUN,PA,LYCOMING
15866,"TROUTVILLE, PA",TROUTVILLE,PA,CLEARFIELD
16947,"TROY, PA",TROY,PA,BRADFORD
18970,"TRUMBAUERSVILLE, PA",TRUMBAUERSVILLE,PA,BUCKS
18657,"TUNKHANNOCK, PA",TUNKHANNOCK,PA,WYOMING
17772,"TURBOTVILLE, PA",TURBOTVILLE,PA,NORTHUMBERLAND
16058,"TURKEY CITY, PA",TURKEY CITY,PA,CLARION
15145,"TURTLE CREEK, PA",TURTLE CREEK,PA,ALLEGHENY
16750,"TURTLEPOINT, PA",TURTLEPOINT,PA,MCKEAN
17982,"TUSCARORA, PA",TUSCARORA,PA,SCHUYLKILL
15960,"TWIN ROCKS, PA",TWIN ROCKS,PA,CAMBRIA
18469,"TYLER HILL, PA",TYLER HILL,PA,WAYNE
16361,"TYLERSBURG, PA",TYLERSBURG,PA,CLARION
18971,"TYLERSPORT, PA",TYLERSPORT,PA,MONTGOMERY
16686,"TYRONE, PA",TYRONE,PA,BLAIR
15484,"ULEDI, PA",ULEDI,PA,FAYETTE
18850,"ULSTER, PA",ULSTER,PA,BRADFORD
16948,"ULYSSES, PA",ULYSSES,PA,POTTER
16438,"UNION CITY, PA",UNION CITY,PA,ERIE
18470,"UNION DALE, PA",UNION DALE,PA,SUSQUEHANNA
15401,"UNIONTOWN, PA",UNIONTOWN,PA,FAYETTE
19375,"UNIONVILLE, PA",UNIONVILLE,PA,CHESTER
15689,"UNITED, PA",UNITED,PA,WESTMORELAND
17774,"UNITYVILLE, PA",UNITYVILLE,PA,LYCOMING
16802,"UNIVERSITY PARK, PA",UNIVERSITY PARK,PA,CENTRE
18972,"UPPER BLACK EDDY, PA",UPPER BLACK EDDY,PA,BUCKS
19082,"UPPER DARBY, PA",UPPER DARBY,PA,DELAWARE
17265,"UPPERSTRASBURG, PA",UPPERSTRASBURG,PA,FRANKLIN
15485,"URSINA, PA",URSINA,PA,SOMERSET
16362,"UTICA, PA",UTICA,PA,VENANGO
19480,"UWCHLAND, PA",UWCHLAND,PA,CHESTER
16059,"VALENCIA, PA",VALENCIA,PA,BUTLER
15780,"VALIER, PA",VALIER,PA,JEFFERSON
19481,"VALLEY FORGE, PA",VALLEY FORGE,PA,CHESTER
19482,"VALLEY FORGE, PA",VALLEY FORGE,PA,CHESTER
17983,"VALLEY VIEW, PA",VALLEY VIEW,PA,SCHUYLKILL
15366,"VAN VOORHIS, PA",VAN VOORHIS,PA,WASHINGTON
15486,"VANDERBILT, PA",VANDERBILT,PA,FAYETTE
15690,"VANDERGRIFT, PA",VANDERGRIFT,PA,WESTMORELAND
16440,"VENANGO, PA",VENANGO,PA,CRAWFORD
15367,"VENETIA, PA",VENETIA,PA,WASHINGTON
16364,"VENUS, PA",VENUS,PA,VENANGO
15147,"VERONA, PA",VERONA,PA,ALLEGHENY
15368,"VESTABURG, PA",VESTABURG,PA,WASHINGTON
17883,"VICKSBURG, PA",VICKSBURG,PA,UNION
16155,"VILLA MARIA, PA",VILLA MARIA,PA,LAWRENCE
19085,"VILLANOVA, PA",VILLANOVA,PA,DELAWARE
15961,"VINTONDALE, PA",VINTONDALE,PA,CAMBRIA
19564,"VIRGINVILLE, PA",VIRGINVILLE,PA,BERKS
16156,"VOLANT, PA",VOLANT,PA,LAWRENCE
16260,"VOWINCKEL, PA",VOWINCKEL,PA,CLARION
19376,"WAGONTOWN, PA",WAGONTOWN,PA,CHESTER
19086,"WALLINGFORD, PA",WALLINGFORD,PA,DELAWARE
17266,"WALNUT BOTTOM, PA",WALNUT BOTTOM,PA,CUMBERLAND
18088,"WALNUTPORT, PA",WALNUTPORT,PA,NORTHAMPTON
15781,"WALSTON, PA",WALSTON,PA,JEFFERSON
15488,"WALTERSBURG, PA",WALTERSBURG,PA,FAYETTE
16157,"WAMPUM, PA",WAMPUM,PA,LAWRENCE
18660,"WAPWALLOPEN, PA",WAPWALLOPEN,PA,LUZERNE
17267,"WARFORDSBURG, PA",WARFORDSBURG,PA,FULTON
18974,"WARMINSTER, PA",WARMINSTER,PA,BUCKS
18991,"WARMINSTER, PA",WARMINSTER,PA,BUCKS
16365,"WARREN, PA",WARREN,PA,WARREN
18851,"WARREN CENTER, PA",WARREN CENTER,PA,BRADFORD
15086,"WARRENDALE, PA",WARRENDALE,PA,ALLEGHENY
15095,"WARRENDALE, PA",WARRENDALE,PA,ALLEGHENY
15096,"WARRENDALE, PA",WARRENDALE,PA,ALLEGHENY
18976,"WARRINGTON, PA",WARRINGTON,PA,BUCKS
16877,"WARRIORS MARK, PA",WARRIORS MARK,PA,HUNTINGDON
15301,"WASHINGTON, PA",WASHINGTON,PA,WASHINGTON
17582,"WASHINGTON BORO, PA",WASHINGTON BORO,PA,LANCASTER
18977,"WASHINGTON CROSSING, PA",WASHINGTON CROSSING,PA,BUCKS
17884,"WASHINGTONVILLE, PA",WASHINGTONVILLE,PA,MONTOUR
16689,"WATERFALL, PA",WATERFALL,PA,FULTON
16441,"WATERFORD, PA",WATERFORD,PA,ERIE
17776,"WATERVILLE, PA",WATERVILLE,PA,LYCOMING
17777,"WATSONTOWN, PA",WATSONTOWN,PA,NORTHUMBERLAND
16442,"WATTSBURG, PA",WATTSBURG,PA,ERIE
18471,"WAVERLY, PA",WAVERLY,PA,LACKAWANNA
18472,"WAYMART, PA",WAYMART,PA,WAYNE
19080,"WAYNE, PA",WAYNE,PA,DELAWARE
19087,"WAYNE, PA",WAYNE,PA,DELAWARE
19088,"WAYNE, PA",WAYNE,PA,DELAWARE
17268,"WAYNESBORO, PA",WAYNESBORO,PA,FRANKLIN
15370,"WAYNESBURG, PA",WAYNESBURG,PA,GREENE
18255,"WEATHERLY, PA",WEATHERLY,PA,CARBON
15087,"WEBSTER, PA",WEBSTER,PA,WESTMORELAND
15868,"WEEDVILLE, PA",WEEDVILLE,PA,ELK
17885,"WEIKERT, PA",WEIKERT,PA,UNION
15564,"WELLERSBURG, PA",WELLERSBURG,PA,SOMERSET
16901,"WELLSBORO, PA",WELLSBORO,PA,TIOGA
17365,"WELLSVILLE, PA",WELLSVILLE,PA,YORK
15691,"WENDEL, PA",WENDEL,PA,WESTMORELAND
19565,"WERNERSVILLE, PA",WERNERSVILLE,PA,BERKS
15376,"WEST ALEXANDER, PA",WEST ALEXANDER,PA,WASHINGTON
19380,"WEST CHESTER, PA",WEST CHESTER,PA,CHESTER
19381,"WEST CHESTER, PA",WEST CHESTER,PA,CHESTER
19382,"WEST CHESTER, PA",WEST CHESTER,PA,CHESTER
19383,"WEST CHESTER, PA",WEST CHESTER,PA,CHESTER
16878,"WEST DECATUR, PA",WEST DECATUR,PA,CLEARFIELD
15088,"WEST ELIZABETH, PA",WEST ELIZABETH,PA,ALLEGHENY
15377,"WEST FINLEY, PA",WEST FINLEY,PA,WASHINGTON
19390,"WEST GROVE, PA",WEST GROVE,PA,CHESTER
16370,"WEST HICKORY, PA",WEST HICKORY,PA,FOREST
15783,"WEST LEBANON, PA",WEST LEBANON,PA,INDIANA
15489,"WEST LEISENRING, PA",WEST LEISENRING,PA,FAYETTE
16159,"WEST MIDDLESEX, PA",WEST MIDDLESEX,PA,MERCER
15379,"WEST MIDDLETOWN, PA",WEST MIDDLETOWN,PA,WASHINGTON
15122,"WEST MIFFLIN, PA",WEST MIFFLIN,PA,ALLEGHENY
15123,"WEST MIFFLIN, PA",WEST MIFFLIN,PA,ALLEGHENY
17886,"WEST MILTON, PA",WEST MILTON,PA,UNION
15089,"WEST NEWTON, PA",WEST NEWTON,PA,WESTMORELAND
16160,"WEST PITTSBURG, PA",WEST PITTSBURG,PA,LAWRENCE
19486,"WEST POINT, PA",WEST POINT,PA,MONTGOMERY
15565,"WEST SALISBURY, PA",WEST SALISBURY,PA,SOMERSET
16443,"WEST SPRINGFIELD, PA",WEST SPRINGFIELD,PA,ERIE
16061,"WEST SUNBURY, PA",WEST SUNBURY,PA,BUTLER
17583,"WEST WILLOW, PA",WEST WILLOW,PA,LANCASTER
16950,"WESTFIELD, PA",WESTFIELD,PA,TIOGA
15378,"WESTLAND, PA",WESTLAND,PA,WASHINGTON
15692,"WESTMORELAND CITY, PA",WESTMORELAND CITY,PA,WESTMORELAND
18256,"WESTON, PA",WESTON,PA,LUZERNE
16692,"WESTOVER, PA",WESTOVER,PA,CLEARFIELD
17778,"WESTPORT, PA",WESTPORT,PA,CLINTON
19395,"WESTTOWN, PA",WESTTOWN,PA,CHESTER
15090,"WEXFORD, PA",WEXFORD,PA,ALLEGHENY
16161,"WHEATLAND, PA",WHEATLAND,PA,MERCER
15490,"WHITE, PA",WHITE,PA,FAYETTE
17887,"WHITE DEER, PA",WHITE DEER,PA,UNION
18661,"WHITE HAVEN, PA",WHITE HAVEN,PA,LUZERNE
18473,"WHITE MILLS, PA",WHITE MILLS,PA,WAYNE
18052,"WHITEHALL, PA",WHITEHALL,PA,LEHIGH
15693,"WHITNEY, PA",WHITNEY,PA,WESTMORELAND
15492,"WICKHAVEN, PA",WICKHAVEN,PA,FAYETTE
17097,"WICONISCO, PA",WICONISCO,PA,DAUPHIN
17888,"WILBURTON, PA",WILBURTON,PA,COLUMBIA
15870,"WILCOX, PA",WILCOX,PA,ELK
15091,"WILDWOOD, PA",WILDWOOD,PA,ALLEGHENY
18701,"WILKES BARRE, PA",WILKES BARRE,PA,LUZERNE
18702,"WILKES BARRE, PA",WILKES BARRE,PA,LUZERNE
18703,"WILKES BARRE, PA",WILKES BARRE,PA,LUZERNE
18705,"WILKES BARRE, PA",WILKES BARRE,PA,LUZERNE
18706,"WILKES BARRE, PA",WILKES BARRE,PA,LUZERNE
18710,"WILKES BARRE, PA",WILKES BARRE,PA,LUZERNE
18711,"WILKES BARRE, PA",WILKES BARRE,PA,LUZERNE
18762,"WILKES BARRE, PA",WILKES BARRE,PA,LUZERNE
18764,"WILKES BARRE, PA",WILKES BARRE,PA,LUZERNE
18765,"WILKES BARRE, PA",WILKES BARRE,PA,LUZERNE
18766,"WILKES BARRE, PA",WILKES BARRE,PA,LUZERNE
18773,"WILKES BARRE, PA",WILKES BARRE,PA,LUZERNE
16693,"WILLIAMSBURG, PA",WILLIAMSBURG,PA,BLAIR
17701,"WILLIAMSPORT, PA",WILLIAMSPORT,PA,LYCOMING
17702,"WILLIAMSPORT, PA",WILLIAMSPORT,PA,LYCOMING
17703,"WILLIAMSPORT, PA",WILLIAMSPORT,PA,LYCOMING
17705,"WILLIAMSPORT, PA",WILLIAMSPORT,PA,LYCOMING
17098,"WILLIAMSTOWN, PA",WILLIAMSTOWN,PA,DAUPHIN
19090,"WILLOW GROVE, PA",WILLOW GROVE,PA,MONTGOMERY
17271,"WILLOW HILL, PA",WILLOW HILL,PA,FRANKLIN
17584,"WILLOW STREET, PA",WILLOW STREET,PA,LANCASTER
15148,"WILMERDING, PA",WILMERDING,PA,ALLEGHENY
15962,"WILMORE, PA",WILMORE,PA,CAMBRIA
16879,"WINBURNE, PA",WINBURNE,PA,CLEARFIELD
18091,"WIND GAP, PA",WIND GAP,PA,NORTHAMPTON
15380,"WIND RIDGE, PA",WIND RIDGE,PA,GREENE
15963,"WINDBER, PA",WINDBER,PA,SOMERSET
17366,"WINDSOR, PA",WINDSOR,PA,YORK
17889,"WINFIELD, PA",WINFIELD,PA,UNION
17585,"WITMER, PA",WITMER,PA,LANCASTER
19567,"WOMELSDORF, PA",WOMELSDORF,PA,BERKS
16695,"WOODBURY, PA",WOODBURY,PA,BEDFORD
16881,"WOODLAND, PA",WOODLAND,PA,CLEARFIELD
19094,"WOODLYN, PA",WOODLYN,PA,DELAWARE
16882,"WOODWARD, PA",WOODWARD,PA,CENTRE
17779,"WOOLRICH, PA",WOOLRICH,PA,CLINTON
19490,"WORCESTER, PA",WORCESTER,PA,MONTGOMERY
16262,"WORTHINGTON, PA",WORTHINGTON,PA,ARMSTRONG
15784,"WORTHVILLE, PA",WORTHVILLE,PA,JEFFERSON
18979,"WOXALL, PA",WOXALL,PA,MONTGOMERY
17368,"WRIGHTSVILLE, PA",WRIGHTSVILLE,PA,YORK
18853,"WYALUSING, PA",WYALUSING,PA,BRADFORD
15695,"WYANO, PA",WYANO,PA,WESTMORELAND
18980,"WYCOMBE, PA",WYCOMBE,PA,BUCKS
19095,"WYNCOTE, PA",WYNCOTE,PA,MONTGOMERY
19096,"WYNNEWOOD, PA",WYNNEWOOD,PA,MONTGOMERY
18644,"WYOMING, PA",WYOMING,PA,LUZERNE
18854,"WYSOX, PA",WYSOX,PA,BRADFORD
16263,"YATESBORO, PA",YATESBORO,PA,ARMSTRONG
17099,"YEAGERTOWN, PA",YEAGERTOWN,PA,MIFFLIN
17401,"YORK, PA",YORK,PA,YORK
17402,"YORK, PA",YORK,PA,YORK
17403,"YORK, PA",YORK,PA,YORK
17404,"YORK, PA",YORK,PA,YORK
17405,"YORK, PA",YORK,PA,YORK
17406,"YORK, PA",YORK,PA,YORK
17407,"YORK, PA",YORK,PA,YORK
17408,"YORK, PA",YORK,PA,YORK
17370,"YORK HAVEN, PA",YORK HAVEN,PA,YORK
17371,"YORK NEW SALEM, PA",YORK NEW SALEM,PA,YORK
17372,"YORK SPRINGS, PA",YORK SPRINGS,PA,ADAMS
15696,"YOUNGSTOWN, PA",YOUNGSTOWN,PA,WESTMORELAND
16371,"YOUNGSVILLE, PA",YOUNGSVILLE,PA,WARREN
15697,"YOUNGWOOD, PA",YOUNGWOOD,PA,WESTMORELAND
15698,"YUKON, PA",YUKON,PA,WESTMORELAND
16063,"ZELIENOPLE, PA",ZELIENOPLE,PA,BUTLER
19492,"ZIEGLERVILLE, PA",ZIEGLERVILLE,PA,MONTGOMERY
17985,"ZION GROVE, PA",ZION GROVE,PA,SCHUYLKILL
18981,"ZIONHILL, PA",ZIONHILL,PA,BUCKS
18092,"ZIONSVILLE, PA",ZIONSVILLE,PA,LEHIGH
17272,"ZULLINGER, PA",ZULLINGER,PA,FRANKLIN
,,,,
,,,,
,,,,
"For more information, kindly visit : www.downloadexcelfiles.com",,,,
